<?xml version="1.0" encoding="UTF-8"?>
<gpx version="1.1" creator="ON.VOYAGE synthetic generator" xmlns="http://www.topografix.com/GPX/1/1">
  <metadata><name>bike_corniche</name><desc>Synthetic ride at 20 km/h along the Corniche Kennedy.</desc></metadata>
  <trk><name>bike_corniche</name><trkseg>
    <trkpt lat="43.288913" lon="5.359013"><time>2026-06-14T09:00:00Z</time><extensions><accuracy>11</accuracy></extensions></trkpt>
    <trkpt lat="43.288819" lon="5.358885"><time>2026-06-14T09:00:02Z</time><extensions><accuracy>7</accuracy></extensions></trkpt>
    <trkpt lat="43.288841" lon="5.358756"><time>2026-06-14T09:00:04Z</time><extensions><accuracy>13</accuracy></extensions></trkpt>
    <trkpt lat="43.288735" lon="5.358655"><time>2026-06-14T09:00:06Z</time><extensions><accuracy>7</accuracy></extensions></trkpt>
    <trkpt lat="43.288740" lon="5.358570"><time>2026-06-14T09:00:08Z</time><extensions><accuracy>12</accuracy></extensions></trkpt>
    <trkpt lat="43.288666" lon="5.358425"><time>2026-06-14T09:00:10Z</time><extensions><accuracy>11</accuracy></extensions></trkpt>
    <trkpt lat="43.288555" lon="5.358306"><time>2026-06-14T09:00:12Z</time><extensions><accuracy>12</accuracy></extensions></trkpt>
    <trkpt lat="43.288574" lon="5.358140"><time>2026-06-14T09:00:14Z</time><extensions><accuracy>13</accuracy></extensions></trkpt>
    <trkpt lat="43.288496" lon="5.358042"><time>2026-06-14T09:00:16Z</time><extensions><accuracy>10</accuracy></extensions></trkpt>
    <trkpt lat="43.288402" lon="5.357949"><time>2026-06-14T09:00:18Z</time><extensions><accuracy>10</accuracy></extensions></trkpt>
    <trkpt lat="43.288441" lon="5.357814"><time>2026-06-14T09:00:20Z</time><extensions><accuracy>7</accuracy></extensions></trkpt>
    <trkpt lat="43.288325" lon="5.357714"><time>2026-06-14T09:00:22Z</time><extensions><accuracy>7</accuracy></extensions></trkpt>
    <trkpt lat="43.288339" lon="5.357483"><time>2026-06-14T09:00:24Z</time><extensions><accuracy>11</accuracy></extensions></trkpt>
    <trkpt lat="43.288267" lon="5.357408"><time>2026-06-14T09:00:26Z</time><extensions><accuracy>14</accuracy></extensions></trkpt>
    <trkpt lat="43.288286" lon="5.357363"><time>2026-06-14T09:00:28Z</time><extensions><accuracy>14</accuracy></extensions></trkpt>
    <trkpt lat="43.288162" lon="5.357282"><time>2026-06-14T09:00:30Z</time><extensions><accuracy>7</accuracy></extensions></trkpt>
    <trkpt lat="43.288094" lon="5.357088"><time>2026-06-14T09:00:32Z</time><extensions><accuracy>13</accuracy></extensions></trkpt>
    <trkpt lat="43.288033" lon="5.357006"><time>2026-06-14T09:00:34Z</time><extensions><accuracy>9</accuracy></extensions></trkpt>
    <trkpt lat="43.288036" lon="5.356900"><time>2026-06-14T09:00:36Z</time><extensions><accuracy>8</accuracy></extensions></trkpt>
    <trkpt lat="43.287982" lon="5.356719"><time>2026-06-14T09:00:38Z</time><extensions><accuracy>10</accuracy></extensions></trkpt>
    <trkpt lat="43.287929" lon="5.356617"><time>2026-06-14T09:00:40Z</time><extensions><accuracy>7</accuracy></extensions></trkpt>
    <trkpt lat="43.287844" lon="5.356533"><time>2026-06-14T09:00:42Z</time><extensions><accuracy>12</accuracy></extensions></trkpt>
    <trkpt lat="43.287814" lon="5.356384"><time>2026-06-14T09:00:44Z</time><extensions><accuracy>7</accuracy></extensions></trkpt>
    <trkpt lat="43.287745" lon="5.356297"><time>2026-06-14T09:00:46Z</time><extensions><accuracy>12</accuracy></extensions></trkpt>
    <trkpt lat="43.287740" lon="5.356126"><time>2026-06-14T09:00:48Z</time><extensions><accuracy>6</accuracy></extensions></trkpt>
    <trkpt lat="43.287646" lon="5.356008"><time>2026-06-14T09:00:50Z</time><extensions><accuracy>9</accuracy></extensions></trkpt>
    <trkpt lat="43.287628" lon="5.355899"><time>2026-06-14T09:00:52Z</time><extensions><accuracy>12</accuracy></extensions></trkpt>
    <trkpt lat="43.287519" lon="5.355789"><time>2026-06-14T09:00:54Z</time><extensions><accuracy>13</accuracy></extensions></trkpt>
    <trkpt lat="43.287537" lon="5.355689"><time>2026-06-14T09:00:56Z</time><extensions><accuracy>10</accuracy></extensions></trkpt>
    <trkpt lat="43.287445" lon="5.355539"><time>2026-06-14T09:00:58Z</time><extensions><accuracy>7</accuracy></extensions></trkpt>
    <trkpt lat="43.287449" lon="5.355378"><time>2026-06-14T09:01:00Z</time><extensions><accuracy>12</accuracy></extensions></trkpt>
    <trkpt lat="43.287374" lon="5.355297"><time>2026-06-14T09:01:02Z</time><extensions><accuracy>11</accuracy></extensions></trkpt>
    <trkpt lat="43.287378" lon="5.355186"><time>2026-06-14T09:01:04Z</time><extensions><accuracy>9</accuracy></extensions></trkpt>
    <trkpt lat="43.287274" lon="5.355090"><time>2026-06-14T09:01:06Z</time><extensions><accuracy>8</accuracy></extensions></trkpt>
    <trkpt lat="43.287180" lon="5.354962"><time>2026-06-14T09:01:08Z</time><extensions><accuracy>9</accuracy></extensions></trkpt>
    <trkpt lat="43.287231" lon="5.354882"><time>2026-06-14T09:01:10Z</time><extensions><accuracy>12</accuracy></extensions></trkpt>
    <trkpt lat="43.287123" lon="5.354642"><time>2026-06-14T09:01:12Z</time><extensions><accuracy>11</accuracy></extensions></trkpt>
    <trkpt lat="43.287072" lon="5.354615"><time>2026-06-14T09:01:14Z</time><extensions><accuracy>13</accuracy></extensions></trkpt>
    <trkpt lat="43.287037" lon="5.354453"><time>2026-06-14T09:01:16Z</time><extensions><accuracy>8</accuracy></extensions></trkpt>
    <trkpt lat="43.286962" lon="5.354387"><time>2026-06-14T09:01:18Z</time><extensions><accuracy>10</accuracy></extensions></trkpt>
    <trkpt lat="43.286933" lon="5.354220"><time>2026-06-14T09:01:20Z</time><extensions><accuracy>11</accuracy></extensions></trkpt>
    <trkpt lat="43.286909" lon="5.354173"><time>2026-06-14T09:01:22Z</time><extensions><accuracy>8</accuracy></extensions></trkpt>
    <trkpt lat="43.286824" lon="5.354025"><time>2026-06-14T09:01:24Z</time><extensions><accuracy>13</accuracy></extensions></trkpt>
    <trkpt lat="43.286802" lon="5.353906"><time>2026-06-14T09:01:26Z</time><extensions><accuracy>7</accuracy></extensions></trkpt>
    <trkpt lat="43.286738" lon="5.353752"><time>2026-06-14T09:01:28Z</time><extensions><accuracy>8</accuracy></extensions></trkpt>
    <trkpt lat="43.286718" lon="5.353584"><time>2026-06-14T09:01:30Z</time><extensions><accuracy>14</accuracy></extensions></trkpt>
    <trkpt lat="43.286598" lon="5.353481"><time>2026-06-14T09:01:32Z</time><extensions><accuracy>10</accuracy></extensions></trkpt>
    <trkpt lat="43.286632" lon="5.353405"><time>2026-06-14T09:01:34Z</time><extensions><accuracy>6</accuracy></extensions></trkpt>
    <trkpt lat="43.286544" lon="5.353311"><time>2026-06-14T09:01:36Z</time><extensions><accuracy>10</accuracy></extensions></trkpt>
    <trkpt lat="43.286494" lon="5.353155"><time>2026-06-14T09:01:38Z</time><extensions><accuracy>6</accuracy></extensions></trkpt>
    <trkpt lat="43.286443" lon="5.353076"><time>2026-06-14T09:01:40Z</time><extensions><accuracy>12</accuracy></extensions></trkpt>
    <trkpt lat="43.286386" lon="5.352913"><time>2026-06-14T09:01:42Z</time><extensions><accuracy>6</accuracy></extensions></trkpt>
    <trkpt lat="43.286334" lon="5.352790"><time>2026-06-14T09:01:44Z</time><extensions><accuracy>13</accuracy></extensions></trkpt>
    <trkpt lat="43.286264" lon="5.352681"><time>2026-06-14T09:01:46Z</time><extensions><accuracy>11</accuracy></extensions></trkpt>
    <trkpt lat="43.286229" lon="5.352653"><time>2026-06-14T09:01:48Z</time><extensions><accuracy>8</accuracy></extensions></trkpt>
    <trkpt lat="43.286230" lon="5.352450"><time>2026-06-14T09:01:50Z</time><extensions><accuracy>13</accuracy></extensions></trkpt>
    <trkpt lat="43.286084" lon="5.352374"><time>2026-06-14T09:01:52Z</time><extensions><accuracy>12</accuracy></extensions></trkpt>
    <trkpt lat="43.286109" lon="5.352212"><time>2026-06-14T09:01:54Z</time><extensions><accuracy>12</accuracy></extensions></trkpt>
    <trkpt lat="43.286044" lon="5.352124"><time>2026-06-14T09:01:56Z</time><extensions><accuracy>12</accuracy></extensions></trkpt>
    <trkpt lat="43.285957" lon="5.351967"><time>2026-06-14T09:01:58Z</time><extensions><accuracy>12</accuracy></extensions></trkpt>
    <trkpt lat="43.285918" lon="5.351924"><time>2026-06-14T09:02:00Z</time><extensions><accuracy>12</accuracy></extensions></trkpt>
    <trkpt lat="43.285878" lon="5.351739"><time>2026-06-14T09:02:02Z</time><extensions><accuracy>9</accuracy></extensions></trkpt>
    <trkpt lat="43.285819" lon="5.351663"><time>2026-06-14T09:02:04Z</time><extensions><accuracy>7</accuracy></extensions></trkpt>
    <trkpt lat="43.285766" lon="5.351478"><time>2026-06-14T09:02:06Z</time><extensions><accuracy>10</accuracy></extensions></trkpt>
    <trkpt lat="43.285675" lon="5.351461"><time>2026-06-14T09:02:08Z</time><extensions><accuracy>11</accuracy></extensions></trkpt>
    <trkpt lat="43.285575" lon="5.351330"><time>2026-06-14T09:02:11Z</time><extensions><accuracy>7</accuracy></extensions></trkpt>
    <trkpt lat="43.285556" lon="5.351207"><time>2026-06-14T09:02:13Z</time><extensions><accuracy>12</accuracy></extensions></trkpt>
    <trkpt lat="43.285505" lon="5.351162"><time>2026-06-14T09:02:15Z</time><extensions><accuracy>14</accuracy></extensions></trkpt>
    <trkpt lat="43.285383" lon="5.351062"><time>2026-06-14T09:02:17Z</time><extensions><accuracy>13</accuracy></extensions></trkpt>
    <trkpt lat="43.285376" lon="5.350920"><time>2026-06-14T09:02:19Z</time><extensions><accuracy>10</accuracy></extensions></trkpt>
    <trkpt lat="43.285244" lon="5.350789"><time>2026-06-14T09:02:21Z</time><extensions><accuracy>7</accuracy></extensions></trkpt>
    <trkpt lat="43.285151" lon="5.350721"><time>2026-06-14T09:02:23Z</time><extensions><accuracy>8</accuracy></extensions></trkpt>
    <trkpt lat="43.285151" lon="5.350595"><time>2026-06-14T09:02:25Z</time><extensions><accuracy>10</accuracy></extensions></trkpt>
    <trkpt lat="43.285048" lon="5.350562"><time>2026-06-14T09:02:27Z</time><extensions><accuracy>12</accuracy></extensions></trkpt>
    <trkpt lat="43.284968" lon="5.350529"><time>2026-06-14T09:02:29Z</time><extensions><accuracy>13</accuracy></extensions></trkpt>
    <trkpt lat="43.284853" lon="5.350460"><time>2026-06-14T09:02:31Z</time><extensions><accuracy>8</accuracy></extensions></trkpt>
    <trkpt lat="43.284786" lon="5.350404"><time>2026-06-14T09:02:33Z</time><extensions><accuracy>10</accuracy></extensions></trkpt>
    <trkpt lat="43.284644" lon="5.350412"><time>2026-06-14T09:02:35Z</time><extensions><accuracy>13</accuracy></extensions></trkpt>
    <trkpt lat="43.284610" lon="5.350241"><time>2026-06-14T09:02:37Z</time><extensions><accuracy>9</accuracy></extensions></trkpt>
    <trkpt lat="43.284493" lon="5.350261"><time>2026-06-14T09:02:39Z</time><extensions><accuracy>12</accuracy></extensions></trkpt>
    <trkpt lat="43.284375" lon="5.350258"><time>2026-06-14T09:02:41Z</time><extensions><accuracy>11</accuracy></extensions></trkpt>
    <trkpt lat="43.284328" lon="5.350250"><time>2026-06-14T09:02:43Z</time><extensions><accuracy>8</accuracy></extensions></trkpt>
    <trkpt lat="43.284214" lon="5.350160"><time>2026-06-14T09:02:45Z</time><extensions><accuracy>14</accuracy></extensions></trkpt>
    <trkpt lat="43.284104" lon="5.350082"><time>2026-06-14T09:02:47Z</time><extensions><accuracy>7</accuracy></extensions></trkpt>
    <trkpt lat="43.284025" lon="5.350017"><time>2026-06-14T09:02:49Z</time><extensions><accuracy>12</accuracy></extensions></trkpt>
    <trkpt lat="43.283871" lon="5.350079"><time>2026-06-14T09:02:51Z</time><extensions><accuracy>12</accuracy></extensions></trkpt>
    <trkpt lat="43.283806" lon="5.349990"><time>2026-06-14T09:02:53Z</time><extensions><accuracy>10</accuracy></extensions></trkpt>
    <trkpt lat="43.283713" lon="5.349893"><time>2026-06-14T09:02:55Z</time><extensions><accuracy>12</accuracy></extensions></trkpt>
    <trkpt lat="43.283649" lon="5.349856"><time>2026-06-14T09:02:57Z</time><extensions><accuracy>13</accuracy></extensions></trkpt>
    <trkpt lat="43.283528" lon="5.349807"><time>2026-06-14T09:02:59Z</time><extensions><accuracy>7</accuracy></extensions></trkpt>
    <trkpt lat="43.283444" lon="5.349838"><time>2026-06-14T09:03:01Z</time><extensions><accuracy>9</accuracy></extensions></trkpt>
    <trkpt lat="43.283309" lon="5.349671"><time>2026-06-14T09:03:03Z</time><extensions><accuracy>13</accuracy></extensions></trkpt>
    <trkpt lat="43.283254" lon="5.349676"><time>2026-06-14T09:03:06Z</time><extensions><accuracy>13</accuracy></extensions></trkpt>
    <trkpt lat="43.283184" lon="5.349635"><time>2026-06-14T09:03:08Z</time><extensions><accuracy>13</accuracy></extensions></trkpt>
    <trkpt lat="43.283078" lon="5.349544"><time>2026-06-14T09:03:10Z</time><extensions><accuracy>6</accuracy></extensions></trkpt>
    <trkpt lat="43.283003" lon="5.349576"><time>2026-06-14T09:03:12Z</time><extensions><accuracy>14</accuracy></extensions></trkpt>
    <trkpt lat="43.282910" lon="5.349526"><time>2026-06-14T09:03:14Z</time><extensions><accuracy>9</accuracy></extensions></trkpt>
    <trkpt lat="43.282784" lon="5.349475"><time>2026-06-14T09:03:16Z</time><extensions><accuracy>9</accuracy></extensions></trkpt>
    <trkpt lat="43.282714" lon="5.349390"><time>2026-06-14T09:03:18Z</time><extensions><accuracy>13</accuracy></extensions></trkpt>
    <trkpt lat="43.282652" lon="5.349522"><time>2026-06-14T09:03:20Z</time><extensions><accuracy>7</accuracy></extensions></trkpt>
    <trkpt lat="43.282523" lon="5.349494"><time>2026-06-14T09:03:22Z</time><extensions><accuracy>10</accuracy></extensions></trkpt>
    <trkpt lat="43.282427" lon="5.349567"><time>2026-06-14T09:03:24Z</time><extensions><accuracy>8</accuracy></extensions></trkpt>
    <trkpt lat="43.282355" lon="5.349700"><time>2026-06-14T09:03:26Z</time><extensions><accuracy>11</accuracy></extensions></trkpt>
    <trkpt lat="43.282311" lon="5.349749"><time>2026-06-14T09:03:28Z</time><extensions><accuracy>6</accuracy></extensions></trkpt>
    <trkpt lat="43.282165" lon="5.349806"><time>2026-06-14T09:03:30Z</time><extensions><accuracy>14</accuracy></extensions></trkpt>
    <trkpt lat="43.282123" lon="5.349980"><time>2026-06-14T09:03:32Z</time><extensions><accuracy>13</accuracy></extensions></trkpt>
    <trkpt lat="43.282002" lon="5.350038"><time>2026-06-14T09:03:34Z</time><extensions><accuracy>6</accuracy></extensions></trkpt>
    <trkpt lat="43.281952" lon="5.350164"><time>2026-06-14T09:03:36Z</time><extensions><accuracy>11</accuracy></extensions></trkpt>
    <trkpt lat="43.281833" lon="5.350168"><time>2026-06-14T09:03:39Z</time><extensions><accuracy>7</accuracy></extensions></trkpt>
    <trkpt lat="43.281712" lon="5.350273"><time>2026-06-14T09:03:41Z</time><extensions><accuracy>10</accuracy></extensions></trkpt>
    <trkpt lat="43.281707" lon="5.350446"><time>2026-06-14T09:03:43Z</time><extensions><accuracy>14</accuracy></extensions></trkpt>
    <trkpt lat="43.281618" lon="5.350465"><time>2026-06-14T09:03:45Z</time><extensions><accuracy>14</accuracy></extensions></trkpt>
    <trkpt lat="43.281466" lon="5.350457"><time>2026-06-14T09:03:47Z</time><extensions><accuracy>12</accuracy></extensions></trkpt>
    <trkpt lat="43.281447" lon="5.350611"><time>2026-06-14T09:03:49Z</time><extensions><accuracy>14</accuracy></extensions></trkpt>
    <trkpt lat="43.281345" lon="5.350742"><time>2026-06-14T09:03:51Z</time><extensions><accuracy>11</accuracy></extensions></trkpt>
    <trkpt lat="43.281253" lon="5.350785"><time>2026-06-14T09:03:53Z</time><extensions><accuracy>6</accuracy></extensions></trkpt>
    <trkpt lat="43.281208" lon="5.350878"><time>2026-06-14T09:03:55Z</time><extensions><accuracy>8</accuracy></extensions></trkpt>
    <trkpt lat="43.281117" lon="5.350943"><time>2026-06-14T09:03:57Z</time><extensions><accuracy>13</accuracy></extensions></trkpt>
    <trkpt lat="43.280957" lon="5.350996"><time>2026-06-14T09:03:59Z</time><extensions><accuracy>10</accuracy></extensions></trkpt>
    <trkpt lat="43.280893" lon="5.351125"><time>2026-06-14T09:04:01Z</time><extensions><accuracy>13</accuracy></extensions></trkpt>
    <trkpt lat="43.280866" lon="5.351159"><time>2026-06-14T09:04:03Z</time><extensions><accuracy>13</accuracy></extensions></trkpt>
    <trkpt lat="43.280756" lon="5.351252"><time>2026-06-14T09:04:05Z</time><extensions><accuracy>11</accuracy></extensions></trkpt>
    <trkpt lat="43.280687" lon="5.351391"><time>2026-06-14T09:04:07Z</time><extensions><accuracy>11</accuracy></extensions></trkpt>
    <trkpt lat="43.280595" lon="5.351435"><time>2026-06-14T09:04:09Z</time><extensions><accuracy>9</accuracy></extensions></trkpt>
    <trkpt lat="43.280500" lon="5.351529"><time>2026-06-14T09:04:11Z</time><extensions><accuracy>7</accuracy></extensions></trkpt>
    <trkpt lat="43.280432" lon="5.351562"><time>2026-06-14T09:04:13Z</time><extensions><accuracy>11</accuracy></extensions></trkpt>
    <trkpt lat="43.280352" lon="5.351725"><time>2026-06-14T09:04:15Z</time><extensions><accuracy>12</accuracy></extensions></trkpt>
    <trkpt lat="43.280322" lon="5.351764"><time>2026-06-14T09:04:17Z</time><extensions><accuracy>8</accuracy></extensions></trkpt>
    <trkpt lat="43.280282" lon="5.351891"><time>2026-06-14T09:04:19Z</time><extensions><accuracy>11</accuracy></extensions></trkpt>
    <trkpt lat="43.280126" lon="5.351979"><time>2026-06-14T09:04:21Z</time><extensions><accuracy>13</accuracy></extensions></trkpt>
    <trkpt lat="43.280112" lon="5.352055"><time>2026-06-14T09:04:23Z</time><extensions><accuracy>14</accuracy></extensions></trkpt>
    <trkpt lat="43.280026" lon="5.352138"><time>2026-06-14T09:04:25Z</time><extensions><accuracy>7</accuracy></extensions></trkpt>
    <trkpt lat="43.279914" lon="5.352214"><time>2026-06-14T09:04:27Z</time><extensions><accuracy>9</accuracy></extensions></trkpt>
    <trkpt lat="43.279800" lon="5.352319"><time>2026-06-14T09:04:29Z</time><extensions><accuracy>10</accuracy></extensions></trkpt>
    <trkpt lat="43.279790" lon="5.352364"><time>2026-06-14T09:04:31Z</time><extensions><accuracy>9</accuracy></extensions></trkpt>
    <trkpt lat="43.279689" lon="5.352455"><time>2026-06-14T09:04:33Z</time><extensions><accuracy>11</accuracy></extensions></trkpt>
    <trkpt lat="43.279685" lon="5.352574"><time>2026-06-14T09:04:35Z</time><extensions><accuracy>9</accuracy></extensions></trkpt>
    <trkpt lat="43.279508" lon="5.352665"><time>2026-06-14T09:04:37Z</time><extensions><accuracy>7</accuracy></extensions></trkpt>
    <trkpt lat="43.279464" lon="5.352793"><time>2026-06-14T09:04:39Z</time><extensions><accuracy>8</accuracy></extensions></trkpt>
    <trkpt lat="43.279387" lon="5.352840"><time>2026-06-14T09:04:41Z</time><extensions><accuracy>10</accuracy></extensions></trkpt>
    <trkpt lat="43.279323" lon="5.352933"><time>2026-06-14T09:04:43Z</time><extensions><accuracy>11</accuracy></extensions></trkpt>
    <trkpt lat="43.279209" lon="5.352976"><time>2026-06-14T09:04:45Z</time><extensions><accuracy>8</accuracy></extensions></trkpt>
    <trkpt lat="43.279128" lon="5.353054"><time>2026-06-14T09:04:47Z</time><extensions><accuracy>9</accuracy></extensions></trkpt>
    <trkpt lat="43.279105" lon="5.353220"><time>2026-06-14T09:04:49Z</time><extensions><accuracy>8</accuracy></extensions></trkpt>
    <trkpt lat="43.279027" lon="5.353281"><time>2026-06-14T09:04:51Z</time><extensions><accuracy>7</accuracy></extensions></trkpt>
    <trkpt lat="43.278906" lon="5.353390"><time>2026-06-14T09:04:53Z</time><extensions><accuracy>11</accuracy></extensions></trkpt>
    <trkpt lat="43.278875" lon="5.353373"><time>2026-06-14T09:04:55Z</time><extensions><accuracy>7</accuracy></extensions></trkpt>
    <trkpt lat="43.278796" lon="5.353499"><time>2026-06-14T09:04:57Z</time><extensions><accuracy>7</accuracy></extensions></trkpt>
    <trkpt lat="43.278749" lon="5.353587"><time>2026-06-14T09:04:59Z</time><extensions><accuracy>8</accuracy></extensions></trkpt>
    <trkpt lat="43.278639" lon="5.353618"><time>2026-06-14T09:05:01Z</time><extensions><accuracy>12</accuracy></extensions></trkpt>
    <trkpt lat="43.278576" lon="5.353804"><time>2026-06-14T09:05:03Z</time><extensions><accuracy>7</accuracy></extensions></trkpt>
    <trkpt lat="43.278465" lon="5.353871"><time>2026-06-14T09:05:05Z</time><extensions><accuracy>8</accuracy></extensions></trkpt>
    <trkpt lat="43.278409" lon="5.354013"><time>2026-06-14T09:05:07Z</time><extensions><accuracy>12</accuracy></extensions></trkpt>
    <trkpt lat="43.278350" lon="5.354117"><time>2026-06-14T09:05:09Z</time><extensions><accuracy>12</accuracy></extensions></trkpt>
    <trkpt lat="43.278242" lon="5.354113"><time>2026-06-14T09:05:11Z</time><extensions><accuracy>10</accuracy></extensions></trkpt>
    <trkpt lat="43.278225" lon="5.354262"><time>2026-06-14T09:05:14Z</time><extensions><accuracy>12</accuracy></extensions></trkpt>
    <trkpt lat="43.278119" lon="5.354325"><time>2026-06-14T09:05:16Z</time><extensions><accuracy>9</accuracy></extensions></trkpt>
    <trkpt lat="43.278024" lon="5.354448"><time>2026-06-14T09:05:18Z</time><extensions><accuracy>8</accuracy></extensions></trkpt>
    <trkpt lat="43.278000" lon="5.354433"><time>2026-06-14T09:05:20Z</time><extensions><accuracy>11</accuracy></extensions></trkpt>
    <trkpt lat="43.277893" lon="5.354566"><time>2026-06-14T09:05:22Z</time><extensions><accuracy>13</accuracy></extensions></trkpt>
    <trkpt lat="43.277799" lon="5.354670"><time>2026-06-14T09:05:24Z</time><extensions><accuracy>12</accuracy></extensions></trkpt>
    <trkpt lat="43.277693" lon="5.354749"><time>2026-06-14T09:05:26Z</time><extensions><accuracy>14</accuracy></extensions></trkpt>
    <trkpt lat="43.277688" lon="5.354873"><time>2026-06-14T09:05:28Z</time><extensions><accuracy>13</accuracy></extensions></trkpt>
    <trkpt lat="43.277587" lon="5.354897"><time>2026-06-14T09:05:30Z</time><extensions><accuracy>7</accuracy></extensions></trkpt>
    <trkpt lat="43.277484" lon="5.355029"><time>2026-06-14T09:05:32Z</time><extensions><accuracy>7</accuracy></extensions></trkpt>
    <trkpt lat="43.277420" lon="5.355081"><time>2026-06-14T09:05:34Z</time><extensions><accuracy>9</accuracy></extensions></trkpt>
    <trkpt lat="43.277377" lon="5.355125"><time>2026-06-14T09:05:36Z</time><extensions><accuracy>11</accuracy></extensions></trkpt>
    <trkpt lat="43.277262" lon="5.355250"><time>2026-06-14T09:05:38Z</time><extensions><accuracy>9</accuracy></extensions></trkpt>
    <trkpt lat="43.277194" lon="5.355314"><time>2026-06-14T09:05:40Z</time><extensions><accuracy>11</accuracy></extensions></trkpt>
    <trkpt lat="43.277170" lon="5.355403"><time>2026-06-14T09:05:42Z</time><extensions><accuracy>9</accuracy></extensions></trkpt>
    <trkpt lat="43.277039" lon="5.355575"><time>2026-06-14T09:05:44Z</time><extensions><accuracy>7</accuracy></extensions></trkpt>
    <trkpt lat="43.277012" lon="5.355589"><time>2026-06-14T09:05:46Z</time><extensions><accuracy>12</accuracy></extensions></trkpt>
    <trkpt lat="43.276869" lon="5.355676"><time>2026-06-14T09:05:48Z</time><extensions><accuracy>13</accuracy></extensions></trkpt>
    <trkpt lat="43.276789" lon="5.355809"><time>2026-06-14T09:05:50Z</time><extensions><accuracy>10</accuracy></extensions></trkpt>
    <trkpt lat="43.276703" lon="5.355881"><time>2026-06-14T09:05:52Z</time><extensions><accuracy>9</accuracy></extensions></trkpt>
    <trkpt lat="43.276637" lon="5.355931"><time>2026-06-14T09:05:54Z</time><extensions><accuracy>8</accuracy></extensions></trkpt>
    <trkpt lat="43.276576" lon="5.356040"><time>2026-06-14T09:05:56Z</time><extensions><accuracy>9</accuracy></extensions></trkpt>
    <trkpt lat="43.276520" lon="5.356142"><time>2026-06-14T09:05:58Z</time><extensions><accuracy>6</accuracy></extensions></trkpt>
    <trkpt lat="43.276371" lon="5.356175"><time>2026-06-14T09:06:00Z</time><extensions><accuracy>10</accuracy></extensions></trkpt>
    <trkpt lat="43.276362" lon="5.356347"><time>2026-06-14T09:06:02Z</time><extensions><accuracy>12</accuracy></extensions></trkpt>
    <trkpt lat="43.276266" lon="5.356395"><time>2026-06-14T09:06:04Z</time><extensions><accuracy>10</accuracy></extensions></trkpt>
    <trkpt lat="43.276213" lon="5.356552"><time>2026-06-14T09:06:06Z</time><extensions><accuracy>12</accuracy></extensions></trkpt>
    <trkpt lat="43.276096" lon="5.356547"><time>2026-06-14T09:06:08Z</time><extensions><accuracy>8</accuracy></extensions></trkpt>
    <trkpt lat="43.276039" lon="5.356692"><time>2026-06-14T09:06:10Z</time><extensions><accuracy>14</accuracy></extensions></trkpt>
    <trkpt lat="43.276038" lon="5.356763"><time>2026-06-14T09:06:12Z</time><extensions><accuracy>8</accuracy></extensions></trkpt>
    <trkpt lat="43.275916" lon="5.356878"><time>2026-06-14T09:06:14Z</time><extensions><accuracy>11</accuracy></extensions></trkpt>
    <trkpt lat="43.275818" lon="5.356902"><time>2026-06-14T09:06:16Z</time><extensions><accuracy>9</accuracy></extensions></trkpt>
    <trkpt lat="43.275748" lon="5.357002"><time>2026-06-14T09:06:18Z</time><extensions><accuracy>8</accuracy></extensions></trkpt>
    <trkpt lat="43.275682" lon="5.357101"><time>2026-06-14T09:06:20Z</time><extensions><accuracy>8</accuracy></extensions></trkpt>
    <trkpt lat="43.275569" lon="5.357169"><time>2026-06-14T09:06:22Z</time><extensions><accuracy>10</accuracy></extensions></trkpt>
    <trkpt lat="43.275498" lon="5.357276"><time>2026-06-14T09:06:24Z</time><extensions><accuracy>12</accuracy></extensions></trkpt>
    <trkpt lat="43.275446" lon="5.357335"><time>2026-06-14T09:06:26Z</time><extensions><accuracy>12</accuracy></extensions></trkpt>
    <trkpt lat="43.275364" lon="5.357440"><time>2026-06-14T09:06:28Z</time><extensions><accuracy>13</accuracy></extensions></trkpt>
    <trkpt lat="43.275325" lon="5.357545"><time>2026-06-14T09:06:30Z</time><extensions><accuracy>13</accuracy></extensions></trkpt>
    <trkpt lat="43.275232" lon="5.357593"><time>2026-06-14T09:06:32Z</time><extensions><accuracy>7</accuracy></extensions></trkpt>
    <trkpt lat="43.275145" lon="5.357677"><time>2026-06-14T09:06:34Z</time><extensions><accuracy>11</accuracy></extensions></trkpt>
    <trkpt lat="43.275055" lon="5.357789"><time>2026-06-14T09:06:36Z</time><extensions><accuracy>9</accuracy></extensions></trkpt>
    <trkpt lat="43.275016" lon="5.357939"><time>2026-06-14T09:06:38Z</time><extensions><accuracy>9</accuracy></extensions></trkpt>
    <trkpt lat="43.274956" lon="5.357955"><time>2026-06-14T09:06:40Z</time><extensions><accuracy>13</accuracy></extensions></trkpt>
    <trkpt lat="43.274834" lon="5.358097"><time>2026-06-14T09:06:42Z</time><extensions><accuracy>8</accuracy></extensions></trkpt>
    <trkpt lat="43.274721" lon="5.358126"><time>2026-06-14T09:06:44Z</time><extensions><accuracy>6</accuracy></extensions></trkpt>
    <trkpt lat="43.274666" lon="5.358197"><time>2026-06-14T09:06:46Z</time><extensions><accuracy>11</accuracy></extensions></trkpt>
    <trkpt lat="43.274573" lon="5.358235"><time>2026-06-14T09:06:48Z</time><extensions><accuracy>6</accuracy></extensions></trkpt>
    <trkpt lat="43.274578" lon="5.358411"><time>2026-06-14T09:06:50Z</time><extensions><accuracy>13</accuracy></extensions></trkpt>
    <trkpt lat="43.274441" lon="5.358516"><time>2026-06-14T09:06:52Z</time><extensions><accuracy>6</accuracy></extensions></trkpt>
    <trkpt lat="43.274384" lon="5.358603"><time>2026-06-14T09:06:54Z</time><extensions><accuracy>8</accuracy></extensions></trkpt>
    <trkpt lat="43.274293" lon="5.358635"><time>2026-06-14T09:06:56Z</time><extensions><accuracy>13</accuracy></extensions></trkpt>
    <trkpt lat="43.274224" lon="5.358675"><time>2026-06-14T09:06:58Z</time><extensions><accuracy>8</accuracy></extensions></trkpt>
    <trkpt lat="43.274102" lon="5.358789"><time>2026-06-14T09:07:00Z</time><extensions><accuracy>11</accuracy></extensions></trkpt>
    <trkpt lat="43.274107" lon="5.358872"><time>2026-06-14T09:07:02Z</time><extensions><accuracy>14</accuracy></extensions></trkpt>
    <trkpt lat="43.273967" lon="5.359006"><time>2026-06-14T09:07:04Z</time><extensions><accuracy>7</accuracy></extensions></trkpt>
    <trkpt lat="43.273912" lon="5.359108"><time>2026-06-14T09:07:06Z</time><extensions><accuracy>12</accuracy></extensions></trkpt>
    <trkpt lat="43.273878" lon="5.359102"><time>2026-06-14T09:07:08Z</time><extensions><accuracy>6</accuracy></extensions></trkpt>
    <trkpt lat="43.273779" lon="5.359195"><time>2026-06-14T09:07:10Z</time><extensions><accuracy>12</accuracy></extensions></trkpt>
    <trkpt lat="43.273687" lon="5.359406"><time>2026-06-14T09:07:12Z</time><extensions><accuracy>9</accuracy></extensions></trkpt>
    <trkpt lat="43.273640" lon="5.359500"><time>2026-06-14T09:07:14Z</time><extensions><accuracy>12</accuracy></extensions></trkpt>
    <trkpt lat="43.273484" lon="5.359534"><time>2026-06-14T09:07:16Z</time><extensions><accuracy>7</accuracy></extensions></trkpt>
    <trkpt lat="43.273465" lon="5.359553"><time>2026-06-14T09:07:18Z</time><extensions><accuracy>10</accuracy></extensions></trkpt>
    <trkpt lat="43.273399" lon="5.359657"><time>2026-06-14T09:07:20Z</time><extensions><accuracy>8</accuracy></extensions></trkpt>
    <trkpt lat="43.273306" lon="5.359791"><time>2026-06-14T09:07:22Z</time><extensions><accuracy>8</accuracy></extensions></trkpt>
    <trkpt lat="43.273267" lon="5.359878"><time>2026-06-14T09:07:24Z</time><extensions><accuracy>13</accuracy></extensions></trkpt>
    <trkpt lat="43.273179" lon="5.359928"><time>2026-06-14T09:07:26Z</time><extensions><accuracy>12</accuracy></extensions></trkpt>
    <trkpt lat="43.273103" lon="5.360050"><time>2026-06-14T09:07:28Z</time><extensions><accuracy>12</accuracy></extensions></trkpt>
    <trkpt lat="43.273039" lon="5.360135"><time>2026-06-14T09:07:30Z</time><extensions><accuracy>14</accuracy></extensions></trkpt>
    <trkpt lat="43.272921" lon="5.360202"><time>2026-06-14T09:07:32Z</time><extensions><accuracy>6</accuracy></extensions></trkpt>
    <trkpt lat="43.272875" lon="5.360358"><time>2026-06-14T09:07:34Z</time><extensions><accuracy>11</accuracy></extensions></trkpt>
    <trkpt lat="43.272764" lon="5.360423"><time>2026-06-14T09:07:36Z</time><extensions><accuracy>12</accuracy></extensions></trkpt>
    <trkpt lat="43.272709" lon="5.360559"><time>2026-06-14T09:07:38Z</time><extensions><accuracy>8</accuracy></extensions></trkpt>
    <trkpt lat="43.272616" lon="5.360626"><time>2026-06-14T09:07:40Z</time><extensions><accuracy>7</accuracy></extensions></trkpt>
    <trkpt lat="43.272541" lon="5.360660"><time>2026-06-14T09:07:42Z</time><extensions><accuracy>14</accuracy></extensions></trkpt>
    <trkpt lat="43.272494" lon="5.360812"><time>2026-06-14T09:07:44Z</time><extensions><accuracy>13</accuracy></extensions></trkpt>
    <trkpt lat="43.272402" lon="5.360854"><time>2026-06-14T09:07:46Z</time><extensions><accuracy>8</accuracy></extensions></trkpt>
    <trkpt lat="43.272331" lon="5.360982"><time>2026-06-14T09:07:48Z</time><extensions><accuracy>13</accuracy></extensions></trkpt>
    <trkpt lat="43.272233" lon="5.361126"><time>2026-06-14T09:07:50Z</time><extensions><accuracy>11</accuracy></extensions></trkpt>
    <trkpt lat="43.272183" lon="5.361176"><time>2026-06-14T09:07:52Z</time><extensions><accuracy>8</accuracy></extensions></trkpt>
    <trkpt lat="43.272076" lon="5.361280"><time>2026-06-14T09:07:54Z</time><extensions><accuracy>10</accuracy></extensions></trkpt>
    <trkpt lat="43.271988" lon="5.361269"><time>2026-06-14T09:07:56Z</time><extensions><accuracy>13</accuracy></extensions></trkpt>
    <trkpt lat="43.271932" lon="5.361417"><time>2026-06-14T09:07:58Z</time><extensions><accuracy>13</accuracy></extensions></trkpt>
    <trkpt lat="43.271863" lon="5.361473"><time>2026-06-14T09:08:00Z</time><extensions><accuracy>12</accuracy></extensions></trkpt>
    <trkpt lat="43.271820" lon="5.361557"><time>2026-06-14T09:08:02Z</time><extensions><accuracy>8</accuracy></extensions></trkpt>
    <trkpt lat="43.271745" lon="5.361617"><time>2026-06-14T09:08:04Z</time><extensions><accuracy>8</accuracy></extensions></trkpt>
    <trkpt lat="43.271629" lon="5.361723"><time>2026-06-14T09:08:06Z</time><extensions><accuracy>11</accuracy></extensions></trkpt>
    <trkpt lat="43.271584" lon="5.361853"><time>2026-06-14T09:08:08Z</time><extensions><accuracy>12</accuracy></extensions></trkpt>
    <trkpt lat="43.271493" lon="5.361918"><time>2026-06-14T09:08:10Z</time><extensions><accuracy>11</accuracy></extensions></trkpt>
    <trkpt lat="43.271439" lon="5.362109"><time>2026-06-14T09:08:12Z</time><extensions><accuracy>8</accuracy></extensions></trkpt>
    <trkpt lat="43.271358" lon="5.362119"><time>2026-06-14T09:08:14Z</time><extensions><accuracy>8</accuracy></extensions></trkpt>
    <trkpt lat="43.271293" lon="5.362190"><time>2026-06-14T09:08:16Z</time><extensions><accuracy>12</accuracy></extensions></trkpt>
    <trkpt lat="43.271197" lon="5.362307"><time>2026-06-14T09:08:18Z</time><extensions><accuracy>14</accuracy></extensions></trkpt>
    <trkpt lat="43.271088" lon="5.362407"><time>2026-06-14T09:08:20Z</time><extensions><accuracy>11</accuracy></extensions></trkpt>
    <trkpt lat="43.271044" lon="5.362466"><time>2026-06-14T09:08:22Z</time><extensions><accuracy>11</accuracy></extensions></trkpt>
    <trkpt lat="43.270930" lon="5.362672"><time>2026-06-14T09:08:24Z</time><extensions><accuracy>13</accuracy></extensions></trkpt>
    <trkpt lat="43.270835" lon="5.362639"><time>2026-06-14T09:08:26Z</time><extensions><accuracy>8</accuracy></extensions></trkpt>
    <trkpt lat="43.270782" lon="5.362714"><time>2026-06-14T09:08:28Z</time><extensions><accuracy>14</accuracy></extensions></trkpt>
    <trkpt lat="43.270741" lon="5.362852"><time>2026-06-14T09:08:31Z</time><extensions><accuracy>13</accuracy></extensions></trkpt>
    <trkpt lat="43.270624" lon="5.362968"><time>2026-06-14T09:08:33Z</time><extensions><accuracy>10</accuracy></extensions></trkpt>
    <trkpt lat="43.270552" lon="5.362981"><time>2026-06-14T09:08:35Z</time><extensions><accuracy>13</accuracy></extensions></trkpt>
    <trkpt lat="43.270457" lon="5.363092"><time>2026-06-14T09:08:37Z</time><extensions><accuracy>9</accuracy></extensions></trkpt>
    <trkpt lat="43.270426" lon="5.363136"><time>2026-06-14T09:08:39Z</time><extensions><accuracy>8</accuracy></extensions></trkpt>
    <trkpt lat="43.270337" lon="5.363277"><time>2026-06-14T09:08:41Z</time><extensions><accuracy>7</accuracy></extensions></trkpt>
    <trkpt lat="43.270299" lon="5.363323"><time>2026-06-14T09:08:43Z</time><extensions><accuracy>12</accuracy></extensions></trkpt>
    <trkpt lat="43.270183" lon="5.363413"><time>2026-06-14T09:08:45Z</time><extensions><accuracy>8</accuracy></extensions></trkpt>
    <trkpt lat="43.270093" lon="5.363457"><time>2026-06-14T09:08:47Z</time><extensions><accuracy>12</accuracy></extensions></trkpt>
    <trkpt lat="43.270024" lon="5.363594"><time>2026-06-14T09:08:49Z</time><extensions><accuracy>7</accuracy></extensions></trkpt>
    <trkpt lat="43.270003" lon="5.363688"><time>2026-06-14T09:08:51Z</time><extensions><accuracy>9</accuracy></extensions></trkpt>
    <trkpt lat="43.269898" lon="5.363776"><time>2026-06-14T09:08:53Z</time><extensions><accuracy>9</accuracy></extensions></trkpt>
  </trkseg></trk>
</gpx>
