<?xml version="1.0" encoding="UTF-8"?>
<gpx version="1.1" creator="ON.VOYAGE synthetic generator" xmlns="http://www.topografix.com/GPX/1/1">
  <metadata><name>car_a50_highway_110kmh</name><desc>Synthetic drive at 110 km/h on a motorway.</desc></metadata>
  <trk><name>car_a50_highway_110kmh</name><trkseg>
    <trkpt lat="43.285971" lon="5.439929"><time>2026-06-14T09:00:00Z</time><extensions><accuracy>12</accuracy></extensions></trkpt>
    <trkpt lat="43.285997" lon="5.440805"><time>2026-06-14T09:00:02Z</time><extensions><accuracy>8</accuracy></extensions></trkpt>
    <trkpt lat="43.286073" lon="5.441521"><time>2026-06-14T09:00:04Z</time><extensions><accuracy>12</accuracy></extensions></trkpt>
    <trkpt lat="43.286100" lon="5.442221"><time>2026-06-14T09:00:06Z</time><extensions><accuracy>9</accuracy></extensions></trkpt>
    <trkpt lat="43.286110" lon="5.443047"><time>2026-06-14T09:00:08Z</time><extensions><accuracy>7</accuracy></extensions></trkpt>
    <trkpt lat="43.286154" lon="5.443814"><time>2026-06-14T09:00:10Z</time><extensions><accuracy>12</accuracy></extensions></trkpt>
    <trkpt lat="43.286167" lon="5.444583"><time>2026-06-14T09:00:12Z</time><extensions><accuracy>5</accuracy></extensions></trkpt>
    <trkpt lat="43.286182" lon="5.445288"><time>2026-06-14T09:00:14Z</time><extensions><accuracy>7</accuracy></extensions></trkpt>
    <trkpt lat="43.286198" lon="5.446025"><time>2026-06-14T09:00:16Z</time><extensions><accuracy>10</accuracy></extensions></trkpt>
    <trkpt lat="43.286173" lon="5.446781"><time>2026-06-14T09:00:18Z</time><extensions><accuracy>8</accuracy></extensions></trkpt>
    <trkpt lat="43.286250" lon="5.447504"><time>2026-06-14T09:00:20Z</time><extensions><accuracy>8</accuracy></extensions></trkpt>
    <trkpt lat="43.286240" lon="5.448258"><time>2026-06-14T09:00:22Z</time><extensions><accuracy>9</accuracy></extensions></trkpt>
    <trkpt lat="43.286306" lon="5.449027"><time>2026-06-14T09:00:24Z</time><extensions><accuracy>8</accuracy></extensions></trkpt>
    <trkpt lat="43.286297" lon="5.449797"><time>2026-06-14T09:00:26Z</time><extensions><accuracy>6</accuracy></extensions></trkpt>
    <trkpt lat="43.286324" lon="5.450544"><time>2026-06-14T09:00:28Z</time><extensions><accuracy>7</accuracy></extensions></trkpt>
    <trkpt lat="43.286296" lon="5.451318"><time>2026-06-14T09:00:30Z</time><extensions><accuracy>5</accuracy></extensions></trkpt>
    <trkpt lat="43.286391" lon="5.452124"><time>2026-06-14T09:00:32Z</time><extensions><accuracy>6</accuracy></extensions></trkpt>
    <trkpt lat="43.286382" lon="5.452805"><time>2026-06-14T09:00:34Z</time><extensions><accuracy>10</accuracy></extensions></trkpt>
    <trkpt lat="43.286362" lon="5.453557"><time>2026-06-14T09:00:36Z</time><extensions><accuracy>5</accuracy></extensions></trkpt>
    <trkpt lat="43.286414" lon="5.454305"><time>2026-06-14T09:00:38Z</time><extensions><accuracy>11</accuracy></extensions></trkpt>
    <trkpt lat="43.286446" lon="5.455048"><time>2026-06-14T09:00:40Z</time><extensions><accuracy>8</accuracy></extensions></trkpt>
    <trkpt lat="43.286479" lon="5.455833"><time>2026-06-14T09:00:42Z</time><extensions><accuracy>12</accuracy></extensions></trkpt>
    <trkpt lat="43.286451" lon="5.456622"><time>2026-06-14T09:00:44Z</time><extensions><accuracy>9</accuracy></extensions></trkpt>
    <trkpt lat="43.286554" lon="5.457353"><time>2026-06-14T09:00:46Z</time><extensions><accuracy>11</accuracy></extensions></trkpt>
    <trkpt lat="43.286527" lon="5.458150"><time>2026-06-14T09:00:48Z</time><extensions><accuracy>6</accuracy></extensions></trkpt>
    <trkpt lat="43.286608" lon="5.458834"><time>2026-06-14T09:00:50Z</time><extensions><accuracy>8</accuracy></extensions></trkpt>
    <trkpt lat="43.286604" lon="5.459655"><time>2026-06-14T09:00:52Z</time><extensions><accuracy>6</accuracy></extensions></trkpt>
    <trkpt lat="43.286648" lon="5.460364"><time>2026-06-14T09:00:54Z</time><extensions><accuracy>6</accuracy></extensions></trkpt>
    <trkpt lat="43.286603" lon="5.461131"><time>2026-06-14T09:00:56Z</time><extensions><accuracy>10</accuracy></extensions></trkpt>
    <trkpt lat="43.286646" lon="5.461852"><time>2026-06-14T09:00:58Z</time><extensions><accuracy>6</accuracy></extensions></trkpt>
    <trkpt lat="43.286671" lon="5.462663"><time>2026-06-14T09:01:00Z</time><extensions><accuracy>7</accuracy></extensions></trkpt>
    <trkpt lat="43.286695" lon="5.463409"><time>2026-06-14T09:01:02Z</time><extensions><accuracy>7</accuracy></extensions></trkpt>
    <trkpt lat="43.286748" lon="5.464150"><time>2026-06-14T09:01:04Z</time><extensions><accuracy>8</accuracy></extensions></trkpt>
    <trkpt lat="43.286771" lon="5.464939"><time>2026-06-14T09:01:06Z</time><extensions><accuracy>10</accuracy></extensions></trkpt>
    <trkpt lat="43.286791" lon="5.465667"><time>2026-06-14T09:01:08Z</time><extensions><accuracy>6</accuracy></extensions></trkpt>
    <trkpt lat="43.286814" lon="5.466412"><time>2026-06-14T09:01:10Z</time><extensions><accuracy>8</accuracy></extensions></trkpt>
    <trkpt lat="43.286806" lon="5.467153"><time>2026-06-14T09:01:12Z</time><extensions><accuracy>11</accuracy></extensions></trkpt>
    <trkpt lat="43.286867" lon="5.467918"><time>2026-06-14T09:01:14Z</time><extensions><accuracy>12</accuracy></extensions></trkpt>
    <trkpt lat="43.286863" lon="5.468706"><time>2026-06-14T09:01:16Z</time><extensions><accuracy>7</accuracy></extensions></trkpt>
    <trkpt lat="43.286849" lon="5.469456"><time>2026-06-14T09:01:18Z</time><extensions><accuracy>6</accuracy></extensions></trkpt>
    <trkpt lat="43.286897" lon="5.470161"><time>2026-06-14T09:01:20Z</time><extensions><accuracy>7</accuracy></extensions></trkpt>
    <trkpt lat="43.286884" lon="5.470913"><time>2026-06-14T09:01:22Z</time><extensions><accuracy>11</accuracy></extensions></trkpt>
    <trkpt lat="43.286937" lon="5.471716"><time>2026-06-14T09:01:24Z</time><extensions><accuracy>8</accuracy></extensions></trkpt>
    <trkpt lat="43.287003" lon="5.472474"><time>2026-06-14T09:01:26Z</time><extensions><accuracy>11</accuracy></extensions></trkpt>
    <trkpt lat="43.286981" lon="5.473173"><time>2026-06-14T09:01:28Z</time><extensions><accuracy>8</accuracy></extensions></trkpt>
    <trkpt lat="43.287032" lon="5.473977"><time>2026-06-14T09:01:30Z</time><extensions><accuracy>9</accuracy></extensions></trkpt>
    <trkpt lat="43.287042" lon="5.474660"><time>2026-06-14T09:01:32Z</time><extensions><accuracy>6</accuracy></extensions></trkpt>
    <trkpt lat="43.287075" lon="5.475463"><time>2026-06-14T09:01:34Z</time><extensions><accuracy>12</accuracy></extensions></trkpt>
    <trkpt lat="43.287072" lon="5.476239"><time>2026-06-14T09:01:36Z</time><extensions><accuracy>8</accuracy></extensions></trkpt>
    <trkpt lat="43.287144" lon="5.476987"><time>2026-06-14T09:01:38Z</time><extensions><accuracy>12</accuracy></extensions></trkpt>
    <trkpt lat="43.287111" lon="5.477772"><time>2026-06-14T09:01:40Z</time><extensions><accuracy>6</accuracy></extensions></trkpt>
    <trkpt lat="43.287180" lon="5.478483"><time>2026-06-14T09:01:42Z</time><extensions><accuracy>11</accuracy></extensions></trkpt>
    <trkpt lat="43.287195" lon="5.479253"><time>2026-06-14T09:01:44Z</time><extensions><accuracy>10</accuracy></extensions></trkpt>
    <trkpt lat="43.287211" lon="5.480048"><time>2026-06-14T09:01:46Z</time><extensions><accuracy>6</accuracy></extensions></trkpt>
    <trkpt lat="43.287244" lon="5.480701"><time>2026-06-14T09:01:48Z</time><extensions><accuracy>12</accuracy></extensions></trkpt>
    <trkpt lat="43.287220" lon="5.481512"><time>2026-06-14T09:01:50Z</time><extensions><accuracy>10</accuracy></extensions></trkpt>
    <trkpt lat="43.287260" lon="5.482293"><time>2026-06-14T09:01:52Z</time><extensions><accuracy>10</accuracy></extensions></trkpt>
    <trkpt lat="43.287257" lon="5.483103"><time>2026-06-14T09:01:54Z</time><extensions><accuracy>12</accuracy></extensions></trkpt>
    <trkpt lat="43.287326" lon="5.483840"><time>2026-06-14T09:01:56Z</time><extensions><accuracy>6</accuracy></extensions></trkpt>
    <trkpt lat="43.287275" lon="5.484595"><time>2026-06-14T09:01:58Z</time><extensions><accuracy>11</accuracy></extensions></trkpt>
    <trkpt lat="43.287364" lon="5.485386"><time>2026-06-14T09:02:00Z</time><extensions><accuracy>12</accuracy></extensions></trkpt>
    <trkpt lat="43.287350" lon="5.486129"><time>2026-06-14T09:02:02Z</time><extensions><accuracy>6</accuracy></extensions></trkpt>
    <trkpt lat="43.287377" lon="5.486925"><time>2026-06-14T09:02:04Z</time><extensions><accuracy>12</accuracy></extensions></trkpt>
    <trkpt lat="43.287399" lon="5.487752"><time>2026-06-14T09:02:06Z</time><extensions><accuracy>7</accuracy></extensions></trkpt>
    <trkpt lat="43.287446" lon="5.488514"><time>2026-06-14T09:02:08Z</time><extensions><accuracy>9</accuracy></extensions></trkpt>
    <trkpt lat="43.287432" lon="5.489150"><time>2026-06-14T09:02:10Z</time><extensions><accuracy>8</accuracy></extensions></trkpt>
    <trkpt lat="43.287448" lon="5.490057"><time>2026-06-14T09:02:12Z</time><extensions><accuracy>5</accuracy></extensions></trkpt>
    <trkpt lat="43.287525" lon="5.490760"><time>2026-06-14T09:02:14Z</time><extensions><accuracy>6</accuracy></extensions></trkpt>
    <trkpt lat="43.287517" lon="5.491471"><time>2026-06-14T09:02:17Z</time><extensions><accuracy>7</accuracy></extensions></trkpt>
    <trkpt lat="43.287476" lon="5.492308"><time>2026-06-14T09:02:19Z</time><extensions><accuracy>7</accuracy></extensions></trkpt>
    <trkpt lat="43.287554" lon="5.493041"><time>2026-06-14T09:02:21Z</time><extensions><accuracy>6</accuracy></extensions></trkpt>
    <trkpt lat="43.287572" lon="5.493873"><time>2026-06-14T09:02:23Z</time><extensions><accuracy>7</accuracy></extensions></trkpt>
    <trkpt lat="43.287577" lon="5.494664"><time>2026-06-14T09:02:25Z</time><extensions><accuracy>6</accuracy></extensions></trkpt>
    <trkpt lat="43.287614" lon="5.495328"><time>2026-06-14T09:02:27Z</time><extensions><accuracy>10</accuracy></extensions></trkpt>
    <trkpt lat="43.287660" lon="5.496193"><time>2026-06-14T09:02:29Z</time><extensions><accuracy>5</accuracy></extensions></trkpt>
    <trkpt lat="43.287652" lon="5.496897"><time>2026-06-14T09:02:31Z</time><extensions><accuracy>10</accuracy></extensions></trkpt>
    <trkpt lat="43.287603" lon="5.497719"><time>2026-06-14T09:02:33Z</time><extensions><accuracy>7</accuracy></extensions></trkpt>
    <trkpt lat="43.287662" lon="5.498513"><time>2026-06-14T09:02:35Z</time><extensions><accuracy>8</accuracy></extensions></trkpt>
    <trkpt lat="43.287733" lon="5.499205"><time>2026-06-14T09:02:37Z</time><extensions><accuracy>6</accuracy></extensions></trkpt>
    <trkpt lat="43.287734" lon="5.499983"><time>2026-06-14T09:02:39Z</time><extensions><accuracy>5</accuracy></extensions></trkpt>
    <trkpt lat="43.287782" lon="5.500775"><time>2026-06-14T09:02:41Z</time><extensions><accuracy>11</accuracy></extensions></trkpt>
    <trkpt lat="43.287759" lon="5.501548"><time>2026-06-14T09:02:43Z</time><extensions><accuracy>10</accuracy></extensions></trkpt>
    <trkpt lat="43.287818" lon="5.502363"><time>2026-06-14T09:02:45Z</time><extensions><accuracy>9</accuracy></extensions></trkpt>
    <trkpt lat="43.287810" lon="5.503077"><time>2026-06-14T09:02:47Z</time><extensions><accuracy>8</accuracy></extensions></trkpt>
    <trkpt lat="43.287823" lon="5.503908"><time>2026-06-14T09:02:49Z</time><extensions><accuracy>10</accuracy></extensions></trkpt>
    <trkpt lat="43.287865" lon="5.504592"><time>2026-06-14T09:02:51Z</time><extensions><accuracy>5</accuracy></extensions></trkpt>
    <trkpt lat="43.287873" lon="5.505414"><time>2026-06-14T09:02:53Z</time><extensions><accuracy>9</accuracy></extensions></trkpt>
    <trkpt lat="43.287863" lon="5.506123"><time>2026-06-14T09:02:55Z</time><extensions><accuracy>10</accuracy></extensions></trkpt>
    <trkpt lat="43.287896" lon="5.506888"><time>2026-06-14T09:02:57Z</time><extensions><accuracy>8</accuracy></extensions></trkpt>
    <trkpt lat="43.287925" lon="5.507651"><time>2026-06-14T09:02:59Z</time><extensions><accuracy>6</accuracy></extensions></trkpt>
    <trkpt lat="43.287964" lon="5.508469"><time>2026-06-14T09:03:02Z</time><extensions><accuracy>10</accuracy></extensions></trkpt>
    <trkpt lat="43.287970" lon="5.509198"><time>2026-06-14T09:03:04Z</time><extensions><accuracy>8</accuracy></extensions></trkpt>
    <trkpt lat="43.287983" lon="5.510036"><time>2026-06-14T09:03:06Z</time><extensions><accuracy>6</accuracy></extensions></trkpt>
    <trkpt lat="43.288024" lon="5.510731"><time>2026-06-14T09:03:08Z</time><extensions><accuracy>11</accuracy></extensions></trkpt>
    <trkpt lat="43.288004" lon="5.511525"><time>2026-06-14T09:03:10Z</time><extensions><accuracy>10</accuracy></extensions></trkpt>
    <trkpt lat="43.288098" lon="5.512263"><time>2026-06-14T09:03:12Z</time><extensions><accuracy>10</accuracy></extensions></trkpt>
    <trkpt lat="43.288057" lon="5.513028"><time>2026-06-14T09:03:14Z</time><extensions><accuracy>6</accuracy></extensions></trkpt>
    <trkpt lat="43.288097" lon="5.513842"><time>2026-06-14T09:03:16Z</time><extensions><accuracy>10</accuracy></extensions></trkpt>
    <trkpt lat="43.288192" lon="5.514572"><time>2026-06-14T09:03:18Z</time><extensions><accuracy>6</accuracy></extensions></trkpt>
    <trkpt lat="43.288168" lon="5.515406"><time>2026-06-14T09:03:20Z</time><extensions><accuracy>6</accuracy></extensions></trkpt>
    <trkpt lat="43.288209" lon="5.516168"><time>2026-06-14T09:03:22Z</time><extensions><accuracy>5</accuracy></extensions></trkpt>
    <trkpt lat="43.288191" lon="5.516957"><time>2026-06-14T09:03:24Z</time><extensions><accuracy>12</accuracy></extensions></trkpt>
    <trkpt lat="43.288270" lon="5.517680"><time>2026-06-14T09:03:26Z</time><extensions><accuracy>5</accuracy></extensions></trkpt>
    <trkpt lat="43.288263" lon="5.518402"><time>2026-06-14T09:03:28Z</time><extensions><accuracy>6</accuracy></extensions></trkpt>
    <trkpt lat="43.288293" lon="5.519129"><time>2026-06-14T09:03:30Z</time><extensions><accuracy>11</accuracy></extensions></trkpt>
    <trkpt lat="43.288371" lon="5.519988"><time>2026-06-14T09:03:32Z</time><extensions><accuracy>7</accuracy></extensions></trkpt>
    <trkpt lat="43.288368" lon="5.520758"><time>2026-06-14T09:03:34Z</time><extensions><accuracy>11</accuracy></extensions></trkpt>
    <trkpt lat="43.288408" lon="5.521548"><time>2026-06-14T09:03:36Z</time><extensions><accuracy>9</accuracy></extensions></trkpt>
    <trkpt lat="43.288425" lon="5.522292"><time>2026-06-14T09:03:38Z</time><extensions><accuracy>6</accuracy></extensions></trkpt>
    <trkpt lat="43.288411" lon="5.523030"><time>2026-06-14T09:03:40Z</time><extensions><accuracy>6</accuracy></extensions></trkpt>
    <trkpt lat="43.288481" lon="5.523825"><time>2026-06-14T09:03:42Z</time><extensions><accuracy>7</accuracy></extensions></trkpt>
    <trkpt lat="43.288497" lon="5.524584"><time>2026-06-14T09:03:44Z</time><extensions><accuracy>8</accuracy></extensions></trkpt>
    <trkpt lat="43.288539" lon="5.525401"><time>2026-06-14T09:03:47Z</time><extensions><accuracy>8</accuracy></extensions></trkpt>
    <trkpt lat="43.288527" lon="5.526109"><time>2026-06-14T09:03:49Z</time><extensions><accuracy>11</accuracy></extensions></trkpt>
    <trkpt lat="43.288595" lon="5.526909"><time>2026-06-14T09:03:51Z</time><extensions><accuracy>10</accuracy></extensions></trkpt>
    <trkpt lat="43.288607" lon="5.527657"><time>2026-06-14T09:03:53Z</time><extensions><accuracy>5</accuracy></extensions></trkpt>
    <trkpt lat="43.288625" lon="5.528474"><time>2026-06-14T09:03:55Z</time><extensions><accuracy>8</accuracy></extensions></trkpt>
    <trkpt lat="43.288680" lon="5.529249"><time>2026-06-14T09:03:57Z</time><extensions><accuracy>9</accuracy></extensions></trkpt>
    <trkpt lat="43.288692" lon="5.529916"><time>2026-06-14T09:03:59Z</time><extensions><accuracy>6</accuracy></extensions></trkpt>
    <trkpt lat="43.288676" lon="5.530825"><time>2026-06-14T09:04:01Z</time><extensions><accuracy>6</accuracy></extensions></trkpt>
    <trkpt lat="43.288729" lon="5.531529"><time>2026-06-14T09:04:03Z</time><extensions><accuracy>7</accuracy></extensions></trkpt>
    <trkpt lat="43.288727" lon="5.532216"><time>2026-06-14T09:04:05Z</time><extensions><accuracy>10</accuracy></extensions></trkpt>
    <trkpt lat="43.288763" lon="5.533161"><time>2026-06-14T09:04:07Z</time><extensions><accuracy>9</accuracy></extensions></trkpt>
    <trkpt lat="43.288796" lon="5.533827"><time>2026-06-14T09:04:09Z</time><extensions><accuracy>11</accuracy></extensions></trkpt>
    <trkpt lat="43.288903" lon="5.534589"><time>2026-06-14T09:04:11Z</time><extensions><accuracy>5</accuracy></extensions></trkpt>
    <trkpt lat="43.288800" lon="5.535440"><time>2026-06-14T09:04:13Z</time><extensions><accuracy>6</accuracy></extensions></trkpt>
    <trkpt lat="43.288884" lon="5.536148"><time>2026-06-14T09:04:15Z</time><extensions><accuracy>9</accuracy></extensions></trkpt>
    <trkpt lat="43.288929" lon="5.536920"><time>2026-06-14T09:04:17Z</time><extensions><accuracy>11</accuracy></extensions></trkpt>
    <trkpt lat="43.288942" lon="5.537646"><time>2026-06-14T09:04:19Z</time><extensions><accuracy>11</accuracy></extensions></trkpt>
    <trkpt lat="43.288954" lon="5.538465"><time>2026-06-14T09:04:21Z</time><extensions><accuracy>5</accuracy></extensions></trkpt>
    <trkpt lat="43.288980" lon="5.539206"><time>2026-06-14T09:04:23Z</time><extensions><accuracy>10</accuracy></extensions></trkpt>
    <trkpt lat="43.288948" lon="5.539975"><time>2026-06-14T09:04:25Z</time><extensions><accuracy>5</accuracy></extensions></trkpt>
    <trkpt lat="43.289049" lon="5.540787"><time>2026-06-14T09:04:27Z</time><extensions><accuracy>10</accuracy></extensions></trkpt>
    <trkpt lat="43.289096" lon="5.541534"><time>2026-06-14T09:04:30Z</time><extensions><accuracy>12</accuracy></extensions></trkpt>
    <trkpt lat="43.289005" lon="5.542290"><time>2026-06-14T09:04:32Z</time><extensions><accuracy>12</accuracy></extensions></trkpt>
    <trkpt lat="43.289130" lon="5.543057"><time>2026-06-14T09:04:34Z</time><extensions><accuracy>5</accuracy></extensions></trkpt>
    <trkpt lat="43.289079" lon="5.543779"><time>2026-06-14T09:04:36Z</time><extensions><accuracy>7</accuracy></extensions></trkpt>
    <trkpt lat="43.289111" lon="5.544632"><time>2026-06-14T09:04:38Z</time><extensions><accuracy>8</accuracy></extensions></trkpt>
    <trkpt lat="43.289158" lon="5.545405"><time>2026-06-14T09:04:40Z</time><extensions><accuracy>11</accuracy></extensions></trkpt>
    <trkpt lat="43.289205" lon="5.546159"><time>2026-06-14T09:04:42Z</time><extensions><accuracy>7</accuracy></extensions></trkpt>
    <trkpt lat="43.289264" lon="5.546888"><time>2026-06-14T09:04:44Z</time><extensions><accuracy>11</accuracy></extensions></trkpt>
    <trkpt lat="43.289293" lon="5.547698"><time>2026-06-14T09:04:46Z</time><extensions><accuracy>10</accuracy></extensions></trkpt>
    <trkpt lat="43.289280" lon="5.548453"><time>2026-06-14T09:04:48Z</time><extensions><accuracy>5</accuracy></extensions></trkpt>
    <trkpt lat="43.289346" lon="5.549232"><time>2026-06-14T09:04:50Z</time><extensions><accuracy>5</accuracy></extensions></trkpt>
    <trkpt lat="43.289370" lon="5.550021"><time>2026-06-14T09:04:52Z</time><extensions><accuracy>6</accuracy></extensions></trkpt>
    <trkpt lat="43.289335" lon="5.550750"><time>2026-06-14T09:04:54Z</time><extensions><accuracy>11</accuracy></extensions></trkpt>
    <trkpt lat="43.289365" lon="5.551490"><time>2026-06-14T09:04:56Z</time><extensions><accuracy>6</accuracy></extensions></trkpt>
    <trkpt lat="43.289410" lon="5.552327"><time>2026-06-14T09:04:58Z</time><extensions><accuracy>10</accuracy></extensions></trkpt>
    <trkpt lat="43.289452" lon="5.553014"><time>2026-06-14T09:05:00Z</time><extensions><accuracy>5</accuracy></extensions></trkpt>
    <trkpt lat="43.289435" lon="5.553793"><time>2026-06-14T09:05:02Z</time><extensions><accuracy>11</accuracy></extensions></trkpt>
    <trkpt lat="43.289459" lon="5.554605"><time>2026-06-14T09:05:04Z</time><extensions><accuracy>11</accuracy></extensions></trkpt>
    <trkpt lat="43.289488" lon="5.555350"><time>2026-06-14T09:05:06Z</time><extensions><accuracy>8</accuracy></extensions></trkpt>
    <trkpt lat="43.289578" lon="5.556195"><time>2026-06-14T09:05:08Z</time><extensions><accuracy>8</accuracy></extensions></trkpt>
    <trkpt lat="43.289552" lon="5.556861"><time>2026-06-14T09:05:10Z</time><extensions><accuracy>8</accuracy></extensions></trkpt>
    <trkpt lat="43.289579" lon="5.557658"><time>2026-06-14T09:05:12Z</time><extensions><accuracy>12</accuracy></extensions></trkpt>
    <trkpt lat="43.289594" lon="5.558423"><time>2026-06-14T09:05:15Z</time><extensions><accuracy>5</accuracy></extensions></trkpt>
    <trkpt lat="43.289653" lon="5.559217"><time>2026-06-14T09:05:17Z</time><extensions><accuracy>11</accuracy></extensions></trkpt>
    <trkpt lat="43.289673" lon="5.559946"><time>2026-06-14T09:05:19Z</time><extensions><accuracy>12</accuracy></extensions></trkpt>
    <trkpt lat="43.289641" lon="5.560796"><time>2026-06-14T09:05:21Z</time><extensions><accuracy>6</accuracy></extensions></trkpt>
    <trkpt lat="43.289683" lon="5.561512"><time>2026-06-14T09:05:23Z</time><extensions><accuracy>10</accuracy></extensions></trkpt>
    <trkpt lat="43.289754" lon="5.562307"><time>2026-06-14T09:05:25Z</time><extensions><accuracy>8</accuracy></extensions></trkpt>
    <trkpt lat="43.289771" lon="5.562986"><time>2026-06-14T09:05:27Z</time><extensions><accuracy>12</accuracy></extensions></trkpt>
    <trkpt lat="43.289827" lon="5.563912"><time>2026-06-14T09:05:29Z</time><extensions><accuracy>9</accuracy></extensions></trkpt>
    <trkpt lat="43.289819" lon="5.564611"><time>2026-06-14T09:05:31Z</time><extensions><accuracy>8</accuracy></extensions></trkpt>
    <trkpt lat="43.289845" lon="5.565443"><time>2026-06-14T09:05:33Z</time><extensions><accuracy>7</accuracy></extensions></trkpt>
    <trkpt lat="43.289866" lon="5.566091"><time>2026-06-14T09:05:35Z</time><extensions><accuracy>11</accuracy></extensions></trkpt>
    <trkpt lat="43.289886" lon="5.566969"><time>2026-06-14T09:05:37Z</time><extensions><accuracy>5</accuracy></extensions></trkpt>
    <trkpt lat="43.289897" lon="5.567720"><time>2026-06-14T09:05:39Z</time><extensions><accuracy>6</accuracy></extensions></trkpt>
    <trkpt lat="43.289973" lon="5.568458"><time>2026-06-14T09:05:41Z</time><extensions><accuracy>6</accuracy></extensions></trkpt>
    <trkpt lat="43.289983" lon="5.569268"><time>2026-06-14T09:05:43Z</time><extensions><accuracy>7</accuracy></extensions></trkpt>
    <trkpt lat="43.290004" lon="5.570046"><time>2026-06-14T09:05:45Z</time><extensions><accuracy>10</accuracy></extensions></trkpt>
  </trkseg></trk>
</gpx>
