<?xml version="1.0" encoding="UTF-8"?>
<gpx version="1.1" creator="ON.VOYAGE synthetic generator" xmlns="http://www.topografix.com/GPX/1/1">
  <metadata><name>car_route_des_cretes</name><desc>Synthetic drive at 50 km/h on the Route des Crêtes; a place lies behind the start.</desc></metadata>
  <trk><name>car_route_des_cretes</name><trkseg>
    <trkpt lat="43.215002" lon="5.529970"><time>2026-06-14T09:00:00Z</time><extensions><accuracy>13</accuracy></extensions></trkpt>
    <trkpt lat="43.214896" lon="5.530373"><time>2026-06-14T09:00:02Z</time><extensions><accuracy>17</accuracy></extensions></trkpt>
    <trkpt lat="43.214833" lon="5.530650"><time>2026-06-14T09:00:04Z</time><extensions><accuracy>12</accuracy></extensions></trkpt>
    <trkpt lat="43.214692" lon="5.530982"><time>2026-06-14T09:00:06Z</time><extensions><accuracy>16</accuracy></extensions></trkpt>
    <trkpt lat="43.214589" lon="5.531249"><time>2026-06-14T09:00:08Z</time><extensions><accuracy>16</accuracy></extensions></trkpt>
    <trkpt lat="43.214537" lon="5.531593"><time>2026-06-14T09:00:10Z</time><extensions><accuracy>11</accuracy></extensions></trkpt>
    <trkpt lat="43.214430" lon="5.531943"><time>2026-06-14T09:00:12Z</time><extensions><accuracy>13</accuracy></extensions></trkpt>
    <trkpt lat="43.214311" lon="5.532205"><time>2026-06-14T09:00:14Z</time><extensions><accuracy>13</accuracy></extensions></trkpt>
    <trkpt lat="43.214233" lon="5.532532"><time>2026-06-14T09:00:16Z</time><extensions><accuracy>15</accuracy></extensions></trkpt>
    <trkpt lat="43.214101" lon="5.532895"><time>2026-06-14T09:00:18Z</time><extensions><accuracy>18</accuracy></extensions></trkpt>
    <trkpt lat="43.214066" lon="5.533220"><time>2026-06-14T09:00:20Z</time><extensions><accuracy>12</accuracy></extensions></trkpt>
    <trkpt lat="43.213931" lon="5.533564"><time>2026-06-14T09:00:22Z</time><extensions><accuracy>15</accuracy></extensions></trkpt>
    <trkpt lat="43.213869" lon="5.533888"><time>2026-06-14T09:00:24Z</time><extensions><accuracy>12</accuracy></extensions></trkpt>
    <trkpt lat="43.213732" lon="5.534184"><time>2026-06-14T09:00:26Z</time><extensions><accuracy>19</accuracy></extensions></trkpt>
    <trkpt lat="43.213649" lon="5.534581"><time>2026-06-14T09:00:28Z</time><extensions><accuracy>10</accuracy></extensions></trkpt>
    <trkpt lat="43.213504" lon="5.534832"><time>2026-06-14T09:00:30Z</time><extensions><accuracy>10</accuracy></extensions></trkpt>
    <trkpt lat="43.213493" lon="5.535154"><time>2026-06-14T09:00:32Z</time><extensions><accuracy>20</accuracy></extensions></trkpt>
    <trkpt lat="43.213372" lon="5.535484"><time>2026-06-14T09:00:34Z</time><extensions><accuracy>20</accuracy></extensions></trkpt>
    <trkpt lat="43.213287" lon="5.535820"><time>2026-06-14T09:00:36Z</time><extensions><accuracy>13</accuracy></extensions></trkpt>
    <trkpt lat="43.213155" lon="5.536129"><time>2026-06-14T09:00:38Z</time><extensions><accuracy>10</accuracy></extensions></trkpt>
    <trkpt lat="43.213027" lon="5.536467"><time>2026-06-14T09:00:40Z</time><extensions><accuracy>14</accuracy></extensions></trkpt>
    <trkpt lat="43.213006" lon="5.536790"><time>2026-06-14T09:00:42Z</time><extensions><accuracy>8</accuracy></extensions></trkpt>
    <trkpt lat="43.212898" lon="5.537055"><time>2026-06-14T09:00:44Z</time><extensions><accuracy>12</accuracy></extensions></trkpt>
    <trkpt lat="43.212791" lon="5.537450"><time>2026-06-14T09:00:46Z</time><extensions><accuracy>19</accuracy></extensions></trkpt>
    <trkpt lat="43.212680" lon="5.537707"><time>2026-06-14T09:00:48Z</time><extensions><accuracy>15</accuracy></extensions></trkpt>
    <trkpt lat="43.212617" lon="5.538042"><time>2026-06-14T09:00:50Z</time><extensions><accuracy>10</accuracy></extensions></trkpt>
    <trkpt lat="43.212507" lon="5.538371"><time>2026-06-14T09:00:52Z</time><extensions><accuracy>18</accuracy></extensions></trkpt>
    <trkpt lat="43.212371" lon="5.538720"><time>2026-06-14T09:00:54Z</time><extensions><accuracy>19</accuracy></extensions></trkpt>
    <trkpt lat="43.212381" lon="5.539007"><time>2026-06-14T09:00:57Z</time><extensions><accuracy>13</accuracy></extensions></trkpt>
    <trkpt lat="43.212170" lon="5.539346"><time>2026-06-14T09:00:59Z</time><extensions><accuracy>11</accuracy></extensions></trkpt>
    <trkpt lat="43.212101" lon="5.539723"><time>2026-06-14T09:01:01Z</time><extensions><accuracy>14</accuracy></extensions></trkpt>
    <trkpt lat="43.212002" lon="5.540047"><time>2026-06-14T09:01:03Z</time><extensions><accuracy>14</accuracy></extensions></trkpt>
    <trkpt lat="43.211885" lon="5.540345"><time>2026-06-14T09:01:05Z</time><extensions><accuracy>18</accuracy></extensions></trkpt>
    <trkpt lat="43.211912" lon="5.540710"><time>2026-06-14T09:01:07Z</time><extensions><accuracy>13</accuracy></extensions></trkpt>
    <trkpt lat="43.211726" lon="5.541030"><time>2026-06-14T09:01:09Z</time><extensions><accuracy>13</accuracy></extensions></trkpt>
    <trkpt lat="43.211626" lon="5.541263"><time>2026-06-14T09:01:11Z</time><extensions><accuracy>13</accuracy></extensions></trkpt>
    <trkpt lat="43.211541" lon="5.541634"><time>2026-06-14T09:01:13Z</time><extensions><accuracy>9</accuracy></extensions></trkpt>
    <trkpt lat="43.211472" lon="5.542037"><time>2026-06-14T09:01:15Z</time><extensions><accuracy>19</accuracy></extensions></trkpt>
    <trkpt lat="43.211368" lon="5.542386"><time>2026-06-14T09:01:17Z</time><extensions><accuracy>13</accuracy></extensions></trkpt>
    <trkpt lat="43.211307" lon="5.542577"><time>2026-06-14T09:01:19Z</time><extensions><accuracy>9</accuracy></extensions></trkpt>
    <trkpt lat="43.211162" lon="5.543011"><time>2026-06-14T09:01:21Z</time><extensions><accuracy>9</accuracy></extensions></trkpt>
    <trkpt lat="43.211086" lon="5.543243"><time>2026-06-14T09:01:23Z</time><extensions><accuracy>11</accuracy></extensions></trkpt>
    <trkpt lat="43.210996" lon="5.543569"><time>2026-06-14T09:01:25Z</time><extensions><accuracy>13</accuracy></extensions></trkpt>
    <trkpt lat="43.210950" lon="5.543941"><time>2026-06-14T09:01:27Z</time><extensions><accuracy>11</accuracy></extensions></trkpt>
    <trkpt lat="43.210805" lon="5.544259"><time>2026-06-14T09:01:29Z</time><extensions><accuracy>14</accuracy></extensions></trkpt>
    <trkpt lat="43.210739" lon="5.544644"><time>2026-06-14T09:01:31Z</time><extensions><accuracy>13</accuracy></extensions></trkpt>
    <trkpt lat="43.210659" lon="5.544952"><time>2026-06-14T09:01:33Z</time><extensions><accuracy>19</accuracy></extensions></trkpt>
    <trkpt lat="43.210584" lon="5.545122"><time>2026-06-14T09:01:35Z</time><extensions><accuracy>18</accuracy></extensions></trkpt>
    <trkpt lat="43.210465" lon="5.545553"><time>2026-06-14T09:01:37Z</time><extensions><accuracy>16</accuracy></extensions></trkpt>
    <trkpt lat="43.210385" lon="5.545918"><time>2026-06-14T09:01:39Z</time><extensions><accuracy>19</accuracy></extensions></trkpt>
    <trkpt lat="43.210290" lon="5.546181"><time>2026-06-14T09:01:41Z</time><extensions><accuracy>10</accuracy></extensions></trkpt>
    <trkpt lat="43.210317" lon="5.546527"><time>2026-06-14T09:01:43Z</time><extensions><accuracy>20</accuracy></extensions></trkpt>
    <trkpt lat="43.210132" lon="5.546904"><time>2026-06-14T09:01:45Z</time><extensions><accuracy>18</accuracy></extensions></trkpt>
    <trkpt lat="43.210101" lon="5.547176"><time>2026-06-14T09:01:47Z</time><extensions><accuracy>10</accuracy></extensions></trkpt>
    <trkpt lat="43.209962" lon="5.547484"><time>2026-06-14T09:01:49Z</time><extensions><accuracy>11</accuracy></extensions></trkpt>
    <trkpt lat="43.209880" lon="5.547875"><time>2026-06-14T09:01:51Z</time><extensions><accuracy>14</accuracy></extensions></trkpt>
    <trkpt lat="43.209841" lon="5.548190"><time>2026-06-14T09:01:53Z</time><extensions><accuracy>18</accuracy></extensions></trkpt>
    <trkpt lat="43.209655" lon="5.548464"><time>2026-06-14T09:01:55Z</time><extensions><accuracy>15</accuracy></extensions></trkpt>
    <trkpt lat="43.209618" lon="5.548822"><time>2026-06-14T09:01:58Z</time><extensions><accuracy>18</accuracy></extensions></trkpt>
    <trkpt lat="43.209567" lon="5.549185"><time>2026-06-14T09:02:00Z</time><extensions><accuracy>15</accuracy></extensions></trkpt>
    <trkpt lat="43.209424" lon="5.549436"><time>2026-06-14T09:02:02Z</time><extensions><accuracy>17</accuracy></extensions></trkpt>
    <trkpt lat="43.209354" lon="5.549739"><time>2026-06-14T09:02:04Z</time><extensions><accuracy>14</accuracy></extensions></trkpt>
    <trkpt lat="43.209204" lon="5.550131"><time>2026-06-14T09:02:06Z</time><extensions><accuracy>11</accuracy></extensions></trkpt>
    <trkpt lat="43.209107" lon="5.550426"><time>2026-06-14T09:02:08Z</time><extensions><accuracy>17</accuracy></extensions></trkpt>
    <trkpt lat="43.208957" lon="5.550767"><time>2026-06-14T09:02:10Z</time><extensions><accuracy>16</accuracy></extensions></trkpt>
    <trkpt lat="43.208891" lon="5.550993"><time>2026-06-14T09:02:12Z</time><extensions><accuracy>11</accuracy></extensions></trkpt>
    <trkpt lat="43.208750" lon="5.551326"><time>2026-06-14T09:02:14Z</time><extensions><accuracy>18</accuracy></extensions></trkpt>
    <trkpt lat="43.208640" lon="5.551644"><time>2026-06-14T09:02:16Z</time><extensions><accuracy>17</accuracy></extensions></trkpt>
    <trkpt lat="43.208537" lon="5.552041"><time>2026-06-14T09:02:18Z</time><extensions><accuracy>9</accuracy></extensions></trkpt>
    <trkpt lat="43.208403" lon="5.552321"><time>2026-06-14T09:02:20Z</time><extensions><accuracy>15</accuracy></extensions></trkpt>
    <trkpt lat="43.208289" lon="5.552608"><time>2026-06-14T09:02:22Z</time><extensions><accuracy>18</accuracy></extensions></trkpt>
    <trkpt lat="43.208205" lon="5.552915"><time>2026-06-14T09:02:24Z</time><extensions><accuracy>13</accuracy></extensions></trkpt>
    <trkpt lat="43.208075" lon="5.553217"><time>2026-06-14T09:02:26Z</time><extensions><accuracy>17</accuracy></extensions></trkpt>
    <trkpt lat="43.207915" lon="5.553505"><time>2026-06-14T09:02:28Z</time><extensions><accuracy>10</accuracy></extensions></trkpt>
    <trkpt lat="43.207806" lon="5.553865"><time>2026-06-14T09:02:30Z</time><extensions><accuracy>9</accuracy></extensions></trkpt>
    <trkpt lat="43.207652" lon="5.554157"><time>2026-06-14T09:02:32Z</time><extensions><accuracy>12</accuracy></extensions></trkpt>
    <trkpt lat="43.207582" lon="5.554423"><time>2026-06-14T09:02:34Z</time><extensions><accuracy>9</accuracy></extensions></trkpt>
    <trkpt lat="43.207503" lon="5.554743"><time>2026-06-14T09:02:36Z</time><extensions><accuracy>13</accuracy></extensions></trkpt>
    <trkpt lat="43.207385" lon="5.555046"><time>2026-06-14T09:02:38Z</time><extensions><accuracy>13</accuracy></extensions></trkpt>
    <trkpt lat="43.207209" lon="5.555381"><time>2026-06-14T09:02:40Z</time><extensions><accuracy>16</accuracy></extensions></trkpt>
    <trkpt lat="43.207063" lon="5.555663"><time>2026-06-14T09:02:42Z</time><extensions><accuracy>19</accuracy></extensions></trkpt>
    <trkpt lat="43.207004" lon="5.555956"><time>2026-06-14T09:02:44Z</time><extensions><accuracy>17</accuracy></extensions></trkpt>
    <trkpt lat="43.206909" lon="5.556319"><time>2026-06-14T09:02:46Z</time><extensions><accuracy>14</accuracy></extensions></trkpt>
    <trkpt lat="43.206873" lon="5.556687"><time>2026-06-14T09:02:48Z</time><extensions><accuracy>15</accuracy></extensions></trkpt>
    <trkpt lat="43.206778" lon="5.557040"><time>2026-06-14T09:02:51Z</time><extensions><accuracy>18</accuracy></extensions></trkpt>
    <trkpt lat="43.206743" lon="5.557239"><time>2026-06-14T09:02:53Z</time><extensions><accuracy>12</accuracy></extensions></trkpt>
    <trkpt lat="43.206609" lon="5.557680"><time>2026-06-14T09:02:55Z</time><extensions><accuracy>10</accuracy></extensions></trkpt>
    <trkpt lat="43.206563" lon="5.558018"><time>2026-06-14T09:02:57Z</time><extensions><accuracy>19</accuracy></extensions></trkpt>
    <trkpt lat="43.206488" lon="5.558357"><time>2026-06-14T09:02:59Z</time><extensions><accuracy>17</accuracy></extensions></trkpt>
    <trkpt lat="43.206413" lon="5.558656"><time>2026-06-14T09:03:01Z</time><extensions><accuracy>12</accuracy></extensions></trkpt>
    <trkpt lat="43.206372" lon="5.558920"><time>2026-06-14T09:03:03Z</time><extensions><accuracy>14</accuracy></extensions></trkpt>
    <trkpt lat="43.206294" lon="5.559346"><time>2026-06-14T09:03:05Z</time><extensions><accuracy>19</accuracy></extensions></trkpt>
    <trkpt lat="43.206196" lon="5.559690"><time>2026-06-14T09:03:07Z</time><extensions><accuracy>18</accuracy></extensions></trkpt>
    <trkpt lat="43.206133" lon="5.559965"><time>2026-06-14T09:03:09Z</time><extensions><accuracy>8</accuracy></extensions></trkpt>
    <trkpt lat="43.206053" lon="5.560302"><time>2026-06-14T09:03:11Z</time><extensions><accuracy>11</accuracy></extensions></trkpt>
    <trkpt lat="43.206020" lon="5.560681"><time>2026-06-14T09:03:13Z</time><extensions><accuracy>19</accuracy></extensions></trkpt>
    <trkpt lat="43.205911" lon="5.560987"><time>2026-06-14T09:03:15Z</time><extensions><accuracy>14</accuracy></extensions></trkpt>
    <trkpt lat="43.205827" lon="5.561354"><time>2026-06-14T09:03:17Z</time><extensions><accuracy>16</accuracy></extensions></trkpt>
    <trkpt lat="43.205776" lon="5.561625"><time>2026-06-14T09:03:19Z</time><extensions><accuracy>11</accuracy></extensions></trkpt>
    <trkpt lat="43.205692" lon="5.562003"><time>2026-06-14T09:03:21Z</time><extensions><accuracy>9</accuracy></extensions></trkpt>
    <trkpt lat="43.205626" lon="5.562387"><time>2026-06-14T09:03:23Z</time><extensions><accuracy>14</accuracy></extensions></trkpt>
    <trkpt lat="43.205600" lon="5.562655"><time>2026-06-14T09:03:25Z</time><extensions><accuracy>13</accuracy></extensions></trkpt>
    <trkpt lat="43.205468" lon="5.562978"><time>2026-06-14T09:03:27Z</time><extensions><accuracy>15</accuracy></extensions></trkpt>
    <trkpt lat="43.205409" lon="5.563287"><time>2026-06-14T09:03:29Z</time><extensions><accuracy>11</accuracy></extensions></trkpt>
    <trkpt lat="43.205385" lon="5.563638"><time>2026-06-14T09:03:31Z</time><extensions><accuracy>19</accuracy></extensions></trkpt>
    <trkpt lat="43.205279" lon="5.563955"><time>2026-06-14T09:03:33Z</time><extensions><accuracy>11</accuracy></extensions></trkpt>
    <trkpt lat="43.205200" lon="5.564339"><time>2026-06-14T09:03:35Z</time><extensions><accuracy>17</accuracy></extensions></trkpt>
    <trkpt lat="43.205120" lon="5.564639"><time>2026-06-14T09:03:37Z</time><extensions><accuracy>20</accuracy></extensions></trkpt>
    <trkpt lat="43.205074" lon="5.564966"><time>2026-06-14T09:03:39Z</time><extensions><accuracy>9</accuracy></extensions></trkpt>
    <trkpt lat="43.205012" lon="5.565314"><time>2026-06-14T09:03:41Z</time><extensions><accuracy>9</accuracy></extensions></trkpt>
    <trkpt lat="43.204879" lon="5.565656"><time>2026-06-14T09:03:43Z</time><extensions><accuracy>9</accuracy></extensions></trkpt>
    <trkpt lat="43.204868" lon="5.565958"><time>2026-06-14T09:03:45Z</time><extensions><accuracy>13</accuracy></extensions></trkpt>
    <trkpt lat="43.204771" lon="5.566317"><time>2026-06-14T09:03:47Z</time><extensions><accuracy>14</accuracy></extensions></trkpt>
    <trkpt lat="43.204719" lon="5.566705"><time>2026-06-14T09:03:49Z</time><extensions><accuracy>18</accuracy></extensions></trkpt>
    <trkpt lat="43.204634" lon="5.566905"><time>2026-06-14T09:03:51Z</time><extensions><accuracy>20</accuracy></extensions></trkpt>
    <trkpt lat="43.204574" lon="5.567300"><time>2026-06-14T09:03:53Z</time><extensions><accuracy>16</accuracy></extensions></trkpt>
    <trkpt lat="43.204510" lon="5.567642"><time>2026-06-14T09:03:55Z</time><extensions><accuracy>13</accuracy></extensions></trkpt>
    <trkpt lat="43.204426" lon="5.568089"><time>2026-06-14T09:03:57Z</time><extensions><accuracy>10</accuracy></extensions></trkpt>
    <trkpt lat="43.204343" lon="5.568310"><time>2026-06-14T09:03:59Z</time><extensions><accuracy>14</accuracy></extensions></trkpt>
    <trkpt lat="43.204225" lon="5.568693"><time>2026-06-14T09:04:01Z</time><extensions><accuracy>13</accuracy></extensions></trkpt>
    <trkpt lat="43.204248" lon="5.568999"><time>2026-06-14T09:04:04Z</time><extensions><accuracy>15</accuracy></extensions></trkpt>
    <trkpt lat="43.204136" lon="5.569353"><time>2026-06-14T09:04:06Z</time><extensions><accuracy>9</accuracy></extensions></trkpt>
    <trkpt lat="43.204053" lon="5.569667"><time>2026-06-14T09:04:08Z</time><extensions><accuracy>14</accuracy></extensions></trkpt>
    <trkpt lat="43.203976" lon="5.569902"><time>2026-06-14T09:04:10Z</time><extensions><accuracy>20</accuracy></extensions></trkpt>
    <trkpt lat="43.203906" lon="5.570283"><time>2026-06-14T09:04:12Z</time><extensions><accuracy>19</accuracy></extensions></trkpt>
    <trkpt lat="43.203828" lon="5.570642"><time>2026-06-14T09:04:14Z</time><extensions><accuracy>11</accuracy></extensions></trkpt>
    <trkpt lat="43.203780" lon="5.570950"><time>2026-06-14T09:04:16Z</time><extensions><accuracy>19</accuracy></extensions></trkpt>
    <trkpt lat="43.203673" lon="5.571303"><time>2026-06-14T09:04:18Z</time><extensions><accuracy>14</accuracy></extensions></trkpt>
    <trkpt lat="43.203575" lon="5.571647"><time>2026-06-14T09:04:20Z</time><extensions><accuracy>14</accuracy></extensions></trkpt>
    <trkpt lat="43.203556" lon="5.571978"><time>2026-06-14T09:04:22Z</time><extensions><accuracy>14</accuracy></extensions></trkpt>
    <trkpt lat="43.203420" lon="5.572304"><time>2026-06-14T09:04:24Z</time><extensions><accuracy>12</accuracy></extensions></trkpt>
    <trkpt lat="43.203359" lon="5.572595"><time>2026-06-14T09:04:26Z</time><extensions><accuracy>12</accuracy></extensions></trkpt>
    <trkpt lat="43.203286" lon="5.572969"><time>2026-06-14T09:04:28Z</time><extensions><accuracy>19</accuracy></extensions></trkpt>
    <trkpt lat="43.203175" lon="5.573288"><time>2026-06-14T09:04:30Z</time><extensions><accuracy>19</accuracy></extensions></trkpt>
    <trkpt lat="43.203110" lon="5.573591"><time>2026-06-14T09:04:32Z</time><extensions><accuracy>14</accuracy></extensions></trkpt>
    <trkpt lat="43.203017" lon="5.573901"><time>2026-06-14T09:04:34Z</time><extensions><accuracy>18</accuracy></extensions></trkpt>
    <trkpt lat="43.202942" lon="5.574258"><time>2026-06-14T09:04:36Z</time><extensions><accuracy>9</accuracy></extensions></trkpt>
    <trkpt lat="43.202854" lon="5.574545"><time>2026-06-14T09:04:38Z</time><extensions><accuracy>13</accuracy></extensions></trkpt>
    <trkpt lat="43.202811" lon="5.574938"><time>2026-06-14T09:04:40Z</time><extensions><accuracy>19</accuracy></extensions></trkpt>
    <trkpt lat="43.202700" lon="5.575221"><time>2026-06-14T09:04:42Z</time><extensions><accuracy>13</accuracy></extensions></trkpt>
    <trkpt lat="43.202592" lon="5.575545"><time>2026-06-14T09:04:44Z</time><extensions><accuracy>20</accuracy></extensions></trkpt>
    <trkpt lat="43.202500" lon="5.575897"><time>2026-06-14T09:04:46Z</time><extensions><accuracy>20</accuracy></extensions></trkpt>
    <trkpt lat="43.202441" lon="5.576224"><time>2026-06-14T09:04:48Z</time><extensions><accuracy>15</accuracy></extensions></trkpt>
    <trkpt lat="43.202328" lon="5.576535"><time>2026-06-14T09:04:50Z</time><extensions><accuracy>10</accuracy></extensions></trkpt>
    <trkpt lat="43.202283" lon="5.576859"><time>2026-06-14T09:04:52Z</time><extensions><accuracy>19</accuracy></extensions></trkpt>
    <trkpt lat="43.202232" lon="5.577243"><time>2026-06-14T09:04:54Z</time><extensions><accuracy>12</accuracy></extensions></trkpt>
    <trkpt lat="43.202127" lon="5.577569"><time>2026-06-14T09:04:56Z</time><extensions><accuracy>15</accuracy></extensions></trkpt>
    <trkpt lat="43.202029" lon="5.577947"><time>2026-06-14T09:04:58Z</time><extensions><accuracy>10</accuracy></extensions></trkpt>
    <trkpt lat="43.201937" lon="5.578201"><time>2026-06-14T09:05:00Z</time><extensions><accuracy>14</accuracy></extensions></trkpt>
    <trkpt lat="43.201884" lon="5.578480"><time>2026-06-14T09:05:02Z</time><extensions><accuracy>15</accuracy></extensions></trkpt>
    <trkpt lat="43.201795" lon="5.578859"><time>2026-06-14T09:05:04Z</time><extensions><accuracy>16</accuracy></extensions></trkpt>
    <trkpt lat="43.201700" lon="5.579214"><time>2026-06-14T09:05:06Z</time><extensions><accuracy>18</accuracy></extensions></trkpt>
    <trkpt lat="43.201590" lon="5.579515"><time>2026-06-14T09:05:08Z</time><extensions><accuracy>9</accuracy></extensions></trkpt>
    <trkpt lat="43.201575" lon="5.579830"><time>2026-06-14T09:05:10Z</time><extensions><accuracy>9</accuracy></extensions></trkpt>
    <trkpt lat="43.201413" lon="5.580238"><time>2026-06-14T09:05:12Z</time><extensions><accuracy>10</accuracy></extensions></trkpt>
    <trkpt lat="43.201322" lon="5.580456"><time>2026-06-14T09:05:14Z</time><extensions><accuracy>13</accuracy></extensions></trkpt>
    <trkpt lat="43.201283" lon="5.580831"><time>2026-06-14T09:05:16Z</time><extensions><accuracy>16</accuracy></extensions></trkpt>
    <trkpt lat="43.201199" lon="5.581167"><time>2026-06-14T09:05:18Z</time><extensions><accuracy>12</accuracy></extensions></trkpt>
    <trkpt lat="43.201126" lon="5.581492"><time>2026-06-14T09:05:20Z</time><extensions><accuracy>11</accuracy></extensions></trkpt>
    <trkpt lat="43.201048" lon="5.581826"><time>2026-06-14T09:05:22Z</time><extensions><accuracy>11</accuracy></extensions></trkpt>
    <trkpt lat="43.200957" lon="5.582125"><time>2026-06-14T09:05:24Z</time><extensions><accuracy>11</accuracy></extensions></trkpt>
    <trkpt lat="43.200955" lon="5.582410"><time>2026-06-14T09:05:26Z</time><extensions><accuracy>13</accuracy></extensions></trkpt>
    <trkpt lat="43.200833" lon="5.582806"><time>2026-06-14T09:05:29Z</time><extensions><accuracy>11</accuracy></extensions></trkpt>
    <trkpt lat="43.200750" lon="5.583079"><time>2026-06-14T09:05:31Z</time><extensions><accuracy>10</accuracy></extensions></trkpt>
    <trkpt lat="43.200592" lon="5.583381"><time>2026-06-14T09:05:33Z</time><extensions><accuracy>10</accuracy></extensions></trkpt>
    <trkpt lat="43.200567" lon="5.583783"><time>2026-06-14T09:05:35Z</time><extensions><accuracy>11</accuracy></extensions></trkpt>
    <trkpt lat="43.200479" lon="5.584086"><time>2026-06-14T09:05:37Z</time><extensions><accuracy>13</accuracy></extensions></trkpt>
    <trkpt lat="43.200407" lon="5.584439"><time>2026-06-14T09:05:39Z</time><extensions><accuracy>15</accuracy></extensions></trkpt>
    <trkpt lat="43.200334" lon="5.584774"><time>2026-06-14T09:05:41Z</time><extensions><accuracy>9</accuracy></extensions></trkpt>
    <trkpt lat="43.200248" lon="5.585041"><time>2026-06-14T09:05:43Z</time><extensions><accuracy>17</accuracy></extensions></trkpt>
    <trkpt lat="43.200169" lon="5.585420"><time>2026-06-14T09:05:45Z</time><extensions><accuracy>18</accuracy></extensions></trkpt>
    <trkpt lat="43.200115" lon="5.585748"><time>2026-06-14T09:05:47Z</time><extensions><accuracy>18</accuracy></extensions></trkpt>
    <trkpt lat="43.200008" lon="5.586120"><time>2026-06-14T09:05:49Z</time><extensions><accuracy>19</accuracy></extensions></trkpt>
    <trkpt lat="43.199875" lon="5.586421"><time>2026-06-14T09:05:51Z</time><extensions><accuracy>15</accuracy></extensions></trkpt>
    <trkpt lat="43.199837" lon="5.586708"><time>2026-06-14T09:05:53Z</time><extensions><accuracy>20</accuracy></extensions></trkpt>
    <trkpt lat="43.199738" lon="5.587093"><time>2026-06-14T09:05:55Z</time><extensions><accuracy>12</accuracy></extensions></trkpt>
    <trkpt lat="43.199634" lon="5.587392"><time>2026-06-14T09:05:57Z</time><extensions><accuracy>18</accuracy></extensions></trkpt>
    <trkpt lat="43.199635" lon="5.587762"><time>2026-06-14T09:05:59Z</time><extensions><accuracy>12</accuracy></extensions></trkpt>
    <trkpt lat="43.199492" lon="5.587995"><time>2026-06-14T09:06:01Z</time><extensions><accuracy>15</accuracy></extensions></trkpt>
    <trkpt lat="43.199388" lon="5.588325"><time>2026-06-14T09:06:03Z</time><extensions><accuracy>12</accuracy></extensions></trkpt>
    <trkpt lat="43.199370" lon="5.588683"><time>2026-06-14T09:06:05Z</time><extensions><accuracy>13</accuracy></extensions></trkpt>
    <trkpt lat="43.199231" lon="5.589078"><time>2026-06-14T09:06:07Z</time><extensions><accuracy>10</accuracy></extensions></trkpt>
    <trkpt lat="43.199163" lon="5.589314"><time>2026-06-14T09:06:09Z</time><extensions><accuracy>12</accuracy></extensions></trkpt>
    <trkpt lat="43.199148" lon="5.589658"><time>2026-06-14T09:06:11Z</time><extensions><accuracy>11</accuracy></extensions></trkpt>
    <trkpt lat="43.198941" lon="5.589996"><time>2026-06-14T09:06:13Z</time><extensions><accuracy>19</accuracy></extensions></trkpt>
  </trkseg></trk>
</gpx>
