<?xml version="1.0" encoding="UTF-8"?>
<gpx version="1.1" creator="ON.VOYAGE synthetic generator" xmlns="http://www.topografix.com/GPX/1/1">
  <metadata><name>gps_jitter_urban_canyon</name><desc>Synthetic walk in an urban canyon: 60 % of the fixes are poor and jump by up to 150 m.</desc></metadata>
  <trk><name>gps_jitter_urban_canyon</name><trkseg>
    <trkpt lat="43.295198" lon="5.373660"><time>2026-06-14T09:00:00Z</time><extensions><accuracy>17</accuracy></extensions></trkpt>
    <trkpt lat="43.295379" lon="5.372746"><time>2026-06-14T09:00:03Z</time><extensions><accuracy>110</accuracy></extensions></trkpt>
    <trkpt lat="43.295226" lon="5.373603"><time>2026-06-14T09:00:06Z</time><extensions><accuracy>27</accuracy></extensions></trkpt>
    <trkpt lat="43.296343" lon="5.373576"><time>2026-06-14T09:00:09Z</time><extensions><accuracy>197</accuracy></extensions></trkpt>
    <trkpt lat="43.295266" lon="5.373437"><time>2026-06-14T09:00:12Z</time><extensions><accuracy>19</accuracy></extensions></trkpt>
    <trkpt lat="43.294294" lon="5.373837"><time>2026-06-14T09:00:15Z</time><extensions><accuracy>125</accuracy></extensions></trkpt>
    <trkpt lat="43.296331" lon="5.374574"><time>2026-06-14T09:00:18Z</time><extensions><accuracy>113</accuracy></extensions></trkpt>
    <trkpt lat="43.295343" lon="5.373376"><time>2026-06-14T09:00:21Z</time><extensions><accuracy>30</accuracy></extensions></trkpt>
    <trkpt lat="43.294366" lon="5.373551"><time>2026-06-14T09:00:24Z</time><extensions><accuracy>102</accuracy></extensions></trkpt>
    <trkpt lat="43.296101" lon="5.374252"><time>2026-06-14T09:00:27Z</time><extensions><accuracy>191</accuracy></extensions></trkpt>
    <trkpt lat="43.294261" lon="5.374158"><time>2026-06-14T09:00:30Z</time><extensions><accuracy>166</accuracy></extensions></trkpt>
    <trkpt lat="43.295972" lon="5.372152"><time>2026-06-14T09:00:33Z</time><extensions><accuracy>192</accuracy></extensions></trkpt>
    <trkpt lat="43.294591" lon="5.372906"><time>2026-06-14T09:00:36Z</time><extensions><accuracy>139</accuracy></extensions></trkpt>
    <trkpt lat="43.294458" lon="5.373335"><time>2026-06-14T09:00:39Z</time><extensions><accuracy>134</accuracy></extensions></trkpt>
    <trkpt lat="43.295398" lon="5.373127"><time>2026-06-14T09:00:42Z</time><extensions><accuracy>28</accuracy></extensions></trkpt>
    <trkpt lat="43.295451" lon="5.373088"><time>2026-06-14T09:00:45Z</time><extensions><accuracy>15</accuracy></extensions></trkpt>
    <trkpt lat="43.295422" lon="5.373076"><time>2026-06-14T09:00:48Z</time><extensions><accuracy>30</accuracy></extensions></trkpt>
    <trkpt lat="43.295477" lon="5.372997"><time>2026-06-14T09:00:51Z</time><extensions><accuracy>27</accuracy></extensions></trkpt>
    <trkpt lat="43.295332" lon="5.374070"><time>2026-06-14T09:00:54Z</time><extensions><accuracy>110</accuracy></extensions></trkpt>
    <trkpt lat="43.294233" lon="5.372146"><time>2026-06-14T09:00:57Z</time><extensions><accuracy>194</accuracy></extensions></trkpt>
    <trkpt lat="43.295399" lon="5.374691"><time>2026-06-14T09:01:00Z</time><extensions><accuracy>74</accuracy></extensions></trkpt>
    <trkpt lat="43.295553" lon="5.372878"><time>2026-06-14T09:01:03Z</time><extensions><accuracy>25</accuracy></extensions></trkpt>
    <trkpt lat="43.295545" lon="5.372789"><time>2026-06-14T09:01:06Z</time><extensions><accuracy>16</accuracy></extensions></trkpt>
    <trkpt lat="43.295150" lon="5.374458"><time>2026-06-14T09:01:09Z</time><extensions><accuracy>187</accuracy></extensions></trkpt>
    <trkpt lat="43.294904" lon="5.372958"><time>2026-06-14T09:01:12Z</time><extensions><accuracy>97</accuracy></extensions></trkpt>
    <trkpt lat="43.295575" lon="5.372719"><time>2026-06-14T09:01:15Z</time><extensions><accuracy>27</accuracy></extensions></trkpt>
    <trkpt lat="43.296542" lon="5.372824"><time>2026-06-14T09:01:18Z</time><extensions><accuracy>82</accuracy></extensions></trkpt>
    <trkpt lat="43.295623" lon="5.372670"><time>2026-06-14T09:01:21Z</time><extensions><accuracy>25</accuracy></extensions></trkpt>
    <trkpt lat="43.294475" lon="5.371766"><time>2026-06-14T09:01:24Z</time><extensions><accuracy>83</accuracy></extensions></trkpt>
    <trkpt lat="43.295645" lon="5.372567"><time>2026-06-14T09:01:27Z</time><extensions><accuracy>33</accuracy></extensions></trkpt>
    <trkpt lat="43.294922" lon="5.373493"><time>2026-06-14T09:01:30Z</time><extensions><accuracy>167</accuracy></extensions></trkpt>
    <trkpt lat="43.296946" lon="5.373543"><time>2026-06-14T09:01:33Z</time><extensions><accuracy>146</accuracy></extensions></trkpt>
    <trkpt lat="43.295727" lon="5.372472"><time>2026-06-14T09:01:36Z</time><extensions><accuracy>23</accuracy></extensions></trkpt>
    <trkpt lat="43.296528" lon="5.372617"><time>2026-06-14T09:01:39Z</time><extensions><accuracy>117</accuracy></extensions></trkpt>
    <trkpt lat="43.295743" lon="5.372449"><time>2026-06-14T09:01:42Z</time><extensions><accuracy>25</accuracy></extensions></trkpt>
    <trkpt lat="43.295334" lon="5.371843"><time>2026-06-14T09:01:45Z</time><extensions><accuracy>163</accuracy></extensions></trkpt>
    <trkpt lat="43.295759" lon="5.372327"><time>2026-06-14T09:01:48Z</time><extensions><accuracy>20</accuracy></extensions></trkpt>
    <trkpt lat="43.295256" lon="5.373186"><time>2026-06-14T09:01:51Z</time><extensions><accuracy>105</accuracy></extensions></trkpt>
    <trkpt lat="43.295835" lon="5.372286"><time>2026-06-14T09:01:54Z</time><extensions><accuracy>22</accuracy></extensions></trkpt>
    <trkpt lat="43.296788" lon="5.371720"><time>2026-06-14T09:01:57Z</time><extensions><accuracy>144</accuracy></extensions></trkpt>
    <trkpt lat="43.295830" lon="5.372181"><time>2026-06-14T09:02:00Z</time><extensions><accuracy>25</accuracy></extensions></trkpt>
    <trkpt lat="43.295858" lon="5.372233"><time>2026-06-14T09:02:03Z</time><extensions><accuracy>31</accuracy></extensions></trkpt>
    <trkpt lat="43.295884" lon="5.372178"><time>2026-06-14T09:02:06Z</time><extensions><accuracy>29</accuracy></extensions></trkpt>
    <trkpt lat="43.294889" lon="5.372928"><time>2026-06-14T09:02:09Z</time><extensions><accuracy>153</accuracy></extensions></trkpt>
    <trkpt lat="43.296790" lon="5.370450"><time>2026-06-14T09:02:12Z</time><extensions><accuracy>147</accuracy></extensions></trkpt>
    <trkpt lat="43.296963" lon="5.373437"><time>2026-06-14T09:02:15Z</time><extensions><accuracy>135</accuracy></extensions></trkpt>
    <trkpt lat="43.297191" lon="5.370857"><time>2026-06-14T09:02:18Z</time><extensions><accuracy>74</accuracy></extensions></trkpt>
    <trkpt lat="43.296657" lon="5.370217"><time>2026-06-14T09:02:21Z</time><extensions><accuracy>172</accuracy></extensions></trkpt>
    <trkpt lat="43.295921" lon="5.371960"><time>2026-06-14T09:02:24Z</time><extensions><accuracy>30</accuracy></extensions></trkpt>
    <trkpt lat="43.297228" lon="5.370907"><time>2026-06-14T09:02:27Z</time><extensions><accuracy>173</accuracy></extensions></trkpt>
    <trkpt lat="43.296010" lon="5.371924"><time>2026-06-14T09:02:30Z</time><extensions><accuracy>18</accuracy></extensions></trkpt>
    <trkpt lat="43.295985" lon="5.371834"><time>2026-06-14T09:02:33Z</time><extensions><accuracy>35</accuracy></extensions></trkpt>
    <trkpt lat="43.296005" lon="5.371848"><time>2026-06-14T09:02:36Z</time><extensions><accuracy>33</accuracy></extensions></trkpt>
    <trkpt lat="43.297224" lon="5.373607"><time>2026-06-14T09:02:39Z</time><extensions><accuracy>109</accuracy></extensions></trkpt>
    <trkpt lat="43.296042" lon="5.372292"><time>2026-06-14T09:02:42Z</time><extensions><accuracy>191</accuracy></extensions></trkpt>
    <trkpt lat="43.296808" lon="5.371322"><time>2026-06-14T09:02:45Z</time><extensions><accuracy>113</accuracy></extensions></trkpt>
    <trkpt lat="43.296414" lon="5.372466"><time>2026-06-14T09:02:48Z</time><extensions><accuracy>123</accuracy></extensions></trkpt>
    <trkpt lat="43.294916" lon="5.372295"><time>2026-06-14T09:02:51Z</time><extensions><accuracy>75</accuracy></extensions></trkpt>
    <trkpt lat="43.296127" lon="5.371624"><time>2026-06-14T09:02:54Z</time><extensions><accuracy>27</accuracy></extensions></trkpt>
    <trkpt lat="43.296146" lon="5.371541"><time>2026-06-14T09:02:57Z</time><extensions><accuracy>21</accuracy></extensions></trkpt>
    <trkpt lat="43.296122" lon="5.371545"><time>2026-06-14T09:03:00Z</time><extensions><accuracy>29</accuracy></extensions></trkpt>
    <trkpt lat="43.295696" lon="5.371486"><time>2026-06-14T09:03:03Z</time><extensions><accuracy>154</accuracy></extensions></trkpt>
    <trkpt lat="43.294845" lon="5.373130"><time>2026-06-14T09:03:06Z</time><extensions><accuracy>190</accuracy></extensions></trkpt>
    <trkpt lat="43.296191" lon="5.371442"><time>2026-06-14T09:03:09Z</time><extensions><accuracy>31</accuracy></extensions></trkpt>
    <trkpt lat="43.295932" lon="5.370812"><time>2026-06-14T09:03:12Z</time><extensions><accuracy>190</accuracy></extensions></trkpt>
    <trkpt lat="43.295641" lon="5.373033"><time>2026-06-14T09:03:15Z</time><extensions><accuracy>165</accuracy></extensions></trkpt>
    <trkpt lat="43.296658" lon="5.370512"><time>2026-06-14T09:03:18Z</time><extensions><accuracy>85</accuracy></extensions></trkpt>
    <trkpt lat="43.296044" lon="5.369456"><time>2026-06-14T09:03:21Z</time><extensions><accuracy>135</accuracy></extensions></trkpt>
    <trkpt lat="43.296293" lon="5.371207"><time>2026-06-14T09:03:24Z</time><extensions><accuracy>17</accuracy></extensions></trkpt>
    <trkpt lat="43.296088" lon="5.369576"><time>2026-06-14T09:03:27Z</time><extensions><accuracy>78</accuracy></extensions></trkpt>
    <trkpt lat="43.295181" lon="5.370948"><time>2026-06-14T09:03:30Z</time><extensions><accuracy>72</accuracy></extensions></trkpt>
    <trkpt lat="43.295144" lon="5.370364"><time>2026-06-14T09:03:33Z</time><extensions><accuracy>71</accuracy></extensions></trkpt>
    <trkpt lat="43.297585" lon="5.370083"><time>2026-06-14T09:03:36Z</time><extensions><accuracy>157</accuracy></extensions></trkpt>
    <trkpt lat="43.296498" lon="5.369733"><time>2026-06-14T09:03:39Z</time><extensions><accuracy>167</accuracy></extensions></trkpt>
    <trkpt lat="43.297317" lon="5.371365"><time>2026-06-14T09:03:42Z</time><extensions><accuracy>90</accuracy></extensions></trkpt>
    <trkpt lat="43.296399" lon="5.371015"><time>2026-06-14T09:03:45Z</time><extensions><accuracy>30</accuracy></extensions></trkpt>
    <trkpt lat="43.295464" lon="5.371274"><time>2026-06-14T09:03:48Z</time><extensions><accuracy>83</accuracy></extensions></trkpt>
    <trkpt lat="43.296074" lon="5.369145"><time>2026-06-14T09:03:51Z</time><extensions><accuracy>192</accuracy></extensions></trkpt>
    <trkpt lat="43.296257" lon="5.369942"><time>2026-06-14T09:03:54Z</time><extensions><accuracy>177</accuracy></extensions></trkpt>
    <trkpt lat="43.296441" lon="5.370833"><time>2026-06-14T09:03:57Z</time><extensions><accuracy>26</accuracy></extensions></trkpt>
    <trkpt lat="43.295772" lon="5.369264"><time>2026-06-14T09:04:00Z</time><extensions><accuracy>142</accuracy></extensions></trkpt>
    <trkpt lat="43.296455" lon="5.370005"><time>2026-06-14T09:04:03Z</time><extensions><accuracy>167</accuracy></extensions></trkpt>
    <trkpt lat="43.296509" lon="5.370783"><time>2026-06-14T09:04:06Z</time><extensions><accuracy>15</accuracy></extensions></trkpt>
    <trkpt lat="43.295729" lon="5.369000"><time>2026-06-14T09:04:09Z</time><extensions><accuracy>78</accuracy></extensions></trkpt>
    <trkpt lat="43.296511" lon="5.370686"><time>2026-06-14T09:04:12Z</time><extensions><accuracy>22</accuracy></extensions></trkpt>
    <trkpt lat="43.296546" lon="5.371374"><time>2026-06-14T09:04:15Z</time><extensions><accuracy>189</accuracy></extensions></trkpt>
    <trkpt lat="43.297032" lon="5.369650"><time>2026-06-14T09:04:18Z</time><extensions><accuracy>140</accuracy></extensions></trkpt>
    <trkpt lat="43.296043" lon="5.370459"><time>2026-06-14T09:04:21Z</time><extensions><accuracy>183</accuracy></extensions></trkpt>
    <trkpt lat="43.296624" lon="5.370267"><time>2026-06-14T09:04:24Z</time><extensions><accuracy>108</accuracy></extensions></trkpt>
    <trkpt lat="43.297657" lon="5.371721"><time>2026-06-14T09:04:27Z</time><extensions><accuracy>154</accuracy></extensions></trkpt>
    <trkpt lat="43.295625" lon="5.371289"><time>2026-06-14T09:04:30Z</time><extensions><accuracy>187</accuracy></extensions></trkpt>
    <trkpt lat="43.296360" lon="5.370840"><time>2026-06-14T09:04:33Z</time><extensions><accuracy>73</accuracy></extensions></trkpt>
    <trkpt lat="43.296616" lon="5.370439"><time>2026-06-14T09:04:36Z</time><extensions><accuracy>15</accuracy></extensions></trkpt>
    <trkpt lat="43.297971" lon="5.368556"><time>2026-06-14T09:04:39Z</time><extensions><accuracy>161</accuracy></extensions></trkpt>
    <trkpt lat="43.296716" lon="5.370391"><time>2026-06-14T09:04:42Z</time><extensions><accuracy>30</accuracy></extensions></trkpt>
    <trkpt lat="43.296958" lon="5.369472"><time>2026-06-14T09:04:45Z</time><extensions><accuracy>121</accuracy></extensions></trkpt>
    <trkpt lat="43.296343" lon="5.369194"><time>2026-06-14T09:04:48Z</time><extensions><accuracy>143</accuracy></extensions></trkpt>
    <trkpt lat="43.297668" lon="5.370978"><time>2026-06-14T09:04:51Z</time><extensions><accuracy>156</accuracy></extensions></trkpt>
    <trkpt lat="43.295574" lon="5.370865"><time>2026-06-14T09:04:54Z</time><extensions><accuracy>121</accuracy></extensions></trkpt>
    <trkpt lat="43.296770" lon="5.370213"><time>2026-06-14T09:04:57Z</time><extensions><accuracy>32</accuracy></extensions></trkpt>
    <trkpt lat="43.295908" lon="5.369323"><time>2026-06-14T09:05:00Z</time><extensions><accuracy>101</accuracy></extensions></trkpt>
    <trkpt lat="43.297111" lon="5.370011"><time>2026-06-14T09:05:03Z</time><extensions><accuracy>116</accuracy></extensions></trkpt>
    <trkpt lat="43.298178" lon="5.369932"><time>2026-06-14T09:05:06Z</time><extensions><accuracy>178</accuracy></extensions></trkpt>
    <trkpt lat="43.296864" lon="5.370147"><time>2026-06-14T09:05:09Z</time><extensions><accuracy>20</accuracy></extensions></trkpt>
    <trkpt lat="43.297931" lon="5.370292"><time>2026-06-14T09:05:12Z</time><extensions><accuracy>90</accuracy></extensions></trkpt>
    <trkpt lat="43.297483" lon="5.368527"><time>2026-06-14T09:05:15Z</time><extensions><accuracy>161</accuracy></extensions></trkpt>
    <trkpt lat="43.296956" lon="5.369989"><time>2026-06-14T09:05:18Z</time><extensions><accuracy>35</accuracy></extensions></trkpt>
    <trkpt lat="43.295659" lon="5.369416"><time>2026-06-14T09:05:21Z</time><extensions><accuracy>142</accuracy></extensions></trkpt>
    <trkpt lat="43.296947" lon="5.369908"><time>2026-06-14T09:05:24Z</time><extensions><accuracy>23</accuracy></extensions></trkpt>
    <trkpt lat="43.297946" lon="5.369513"><time>2026-06-14T09:05:27Z</time><extensions><accuracy>129</accuracy></extensions></trkpt>
    <trkpt lat="43.296838" lon="5.370866"><time>2026-06-14T09:05:30Z</time><extensions><accuracy>93</accuracy></extensions></trkpt>
    <trkpt lat="43.296805" lon="5.371344"><time>2026-06-14T09:05:33Z</time><extensions><accuracy>142</accuracy></extensions></trkpt>
    <trkpt lat="43.297690" lon="5.371205"><time>2026-06-14T09:05:36Z</time><extensions><accuracy>134</accuracy></extensions></trkpt>
    <trkpt lat="43.297060" lon="5.369812"><time>2026-06-14T09:05:39Z</time><extensions><accuracy>27</accuracy></extensions></trkpt>
    <trkpt lat="43.297080" lon="5.369739"><time>2026-06-14T09:05:42Z</time><extensions><accuracy>22</accuracy></extensions></trkpt>
    <trkpt lat="43.297098" lon="5.368112"><time>2026-06-14T09:05:45Z</time><extensions><accuracy>85</accuracy></extensions></trkpt>
    <trkpt lat="43.297766" lon="5.369433"><time>2026-06-14T09:05:48Z</time><extensions><accuracy>177</accuracy></extensions></trkpt>
    <trkpt lat="43.296208" lon="5.368966"><time>2026-06-14T09:05:51Z</time><extensions><accuracy>75</accuracy></extensions></trkpt>
    <trkpt lat="43.297776" lon="5.369381"><time>2026-06-14T09:05:54Z</time><extensions><accuracy>145</accuracy></extensions></trkpt>
    <trkpt lat="43.297210" lon="5.369614"><time>2026-06-14T09:05:57Z</time><extensions><accuracy>30</accuracy></extensions></trkpt>
    <trkpt lat="43.296048" lon="5.368983"><time>2026-06-14T09:06:00Z</time><extensions><accuracy>97</accuracy></extensions></trkpt>
    <trkpt lat="43.297243" lon="5.369544"><time>2026-06-14T09:06:03Z</time><extensions><accuracy>31</accuracy></extensions></trkpt>
    <trkpt lat="43.296695" lon="5.369330"><time>2026-06-14T09:06:06Z</time><extensions><accuracy>128</accuracy></extensions></trkpt>
    <trkpt lat="43.297144" lon="5.369100"><time>2026-06-14T09:06:09Z</time><extensions><accuracy>103</accuracy></extensions></trkpt>
    <trkpt lat="43.297743" lon="5.368189"><time>2026-06-14T09:06:12Z</time><extensions><accuracy>117</accuracy></extensions></trkpt>
    <trkpt lat="43.296808" lon="5.368614"><time>2026-06-14T09:06:15Z</time><extensions><accuracy>85</accuracy></extensions></trkpt>
    <trkpt lat="43.296308" lon="5.367806"><time>2026-06-14T09:06:18Z</time><extensions><accuracy>107</accuracy></extensions></trkpt>
    <trkpt lat="43.297389" lon="5.369372"><time>2026-06-14T09:06:22Z</time><extensions><accuracy>32</accuracy></extensions></trkpt>
    <trkpt lat="43.297343" lon="5.369312"><time>2026-06-14T09:06:25Z</time><extensions><accuracy>26</accuracy></extensions></trkpt>
    <trkpt lat="43.297413" lon="5.369346"><time>2026-06-14T09:06:28Z</time><extensions><accuracy>23</accuracy></extensions></trkpt>
    <trkpt lat="43.297943" lon="5.368893"><time>2026-06-14T09:06:31Z</time><extensions><accuracy>174</accuracy></extensions></trkpt>
    <trkpt lat="43.298667" lon="5.369059"><time>2026-06-14T09:06:34Z</time><extensions><accuracy>78</accuracy></extensions></trkpt>
    <trkpt lat="43.297498" lon="5.369232"><time>2026-06-14T09:06:37Z</time><extensions><accuracy>15</accuracy></extensions></trkpt>
    <trkpt lat="43.297767" lon="5.369007"><time>2026-06-14T09:06:40Z</time><extensions><accuracy>179</accuracy></extensions></trkpt>
    <trkpt lat="43.297542" lon="5.369171"><time>2026-06-14T09:06:43Z</time><extensions><accuracy>28</accuracy></extensions></trkpt>
    <trkpt lat="43.298080" lon="5.369704"><time>2026-06-14T09:06:46Z</time><extensions><accuracy>98</accuracy></extensions></trkpt>
    <trkpt lat="43.297546" lon="5.369141"><time>2026-06-14T09:06:49Z</time><extensions><accuracy>31</accuracy></extensions></trkpt>
    <trkpt lat="43.296316" lon="5.370467"><time>2026-06-14T09:06:52Z</time><extensions><accuracy>170</accuracy></extensions></trkpt>
    <trkpt lat="43.297571" lon="5.368971"><time>2026-06-14T09:06:55Z</time><extensions><accuracy>32</accuracy></extensions></trkpt>
    <trkpt lat="43.296495" lon="5.370257"><time>2026-06-14T09:06:58Z</time><extensions><accuracy>79</accuracy></extensions></trkpt>
    <trkpt lat="43.296898" lon="5.369553"><time>2026-06-14T09:07:01Z</time><extensions><accuracy>137</accuracy></extensions></trkpt>
    <trkpt lat="43.297122" lon="5.368250"><time>2026-06-14T09:07:04Z</time><extensions><accuracy>153</accuracy></extensions></trkpt>
  </trkseg></trk>
</gpx>
