<?xml version="1.0" encoding="UTF-8"?>
<gpx version="1.1" creator="ON.VOYAGE synthetic generator" xmlns="http://www.topografix.com/GPX/1/1">
  <metadata><name>tunnel_loss</name><desc>Synthetic ride at 20 km/h with a 2 minute GPS loss while passing a place.</desc></metadata>
  <trk><name>tunnel_loss</name><trkseg>
    <trkpt lat="43.284977" lon="5.380053"><time>2026-06-14T09:00:00Z</time><extensions><accuracy>12</accuracy></extensions></trkpt>
    <trkpt lat="43.284900" lon="5.380151"><time>2026-06-14T09:00:03Z</time><extensions><accuracy>14</accuracy></extensions></trkpt>
    <trkpt lat="43.284791" lon="5.380304"><time>2026-06-14T09:00:06Z</time><extensions><accuracy>11</accuracy></extensions></trkpt>
    <trkpt lat="43.284657" lon="5.380348"><time>2026-06-14T09:00:09Z</time><extensions><accuracy>10</accuracy></extensions></trkpt>
    <trkpt lat="43.284526" lon="5.380524"><time>2026-06-14T09:00:12Z</time><extensions><accuracy>10</accuracy></extensions></trkpt>
    <trkpt lat="43.284412" lon="5.380670"><time>2026-06-14T09:00:15Z</time><extensions><accuracy>10</accuracy></extensions></trkpt>
    <trkpt lat="43.284366" lon="5.380841"><time>2026-06-14T09:00:18Z</time><extensions><accuracy>13</accuracy></extensions></trkpt>
    <trkpt lat="43.284256" lon="5.380966"><time>2026-06-14T09:00:21Z</time><extensions><accuracy>13</accuracy></extensions></trkpt>
    <trkpt lat="43.284184" lon="5.381130"><time>2026-06-14T09:00:24Z</time><extensions><accuracy>8</accuracy></extensions></trkpt>
    <trkpt lat="43.284045" lon="5.381285"><time>2026-06-14T09:00:27Z</time><extensions><accuracy>12</accuracy></extensions></trkpt>
    <trkpt lat="43.283978" lon="5.381413"><time>2026-06-14T09:00:30Z</time><extensions><accuracy>12</accuracy></extensions></trkpt>
    <trkpt lat="43.283793" lon="5.381516"><time>2026-06-14T09:00:33Z</time><extensions><accuracy>10</accuracy></extensions></trkpt>
    <trkpt lat="43.283704" lon="5.381725"><time>2026-06-14T09:00:36Z</time><extensions><accuracy>13</accuracy></extensions></trkpt>
    <trkpt lat="43.283584" lon="5.381845"><time>2026-06-14T09:00:39Z</time><extensions><accuracy>11</accuracy></extensions></trkpt>
    <trkpt lat="43.283542" lon="5.382007"><time>2026-06-14T09:00:42Z</time><extensions><accuracy>14</accuracy></extensions></trkpt>
    <trkpt lat="43.283466" lon="5.382159"><time>2026-06-14T09:00:45Z</time><extensions><accuracy>11</accuracy></extensions></trkpt>
    <trkpt lat="43.283318" lon="5.382321"><time>2026-06-14T09:00:48Z</time><extensions><accuracy>10</accuracy></extensions></trkpt>
    <trkpt lat="43.283185" lon="5.382433"><time>2026-06-14T09:00:51Z</time><extensions><accuracy>9</accuracy></extensions></trkpt>
    <trkpt lat="43.283115" lon="5.382514"><time>2026-06-14T09:00:54Z</time><extensions><accuracy>10</accuracy></extensions></trkpt>
    <trkpt lat="43.283010" lon="5.382714"><time>2026-06-14T09:00:57Z</time><extensions><accuracy>12</accuracy></extensions></trkpt>
    <trkpt lat="43.282838" lon="5.382820"><time>2026-06-14T09:01:00Z</time><extensions><accuracy>13</accuracy></extensions></trkpt>
    <trkpt lat="43.282802" lon="5.382961"><time>2026-06-14T09:01:03Z</time><extensions><accuracy>11</accuracy></extensions></trkpt>
    <trkpt lat="43.282625" lon="5.383104"><time>2026-06-14T09:01:06Z</time><extensions><accuracy>13</accuracy></extensions></trkpt>
    <trkpt lat="43.282558" lon="5.383277"><time>2026-06-14T09:01:09Z</time><extensions><accuracy>8</accuracy></extensions></trkpt>
    <trkpt lat="43.282458" lon="5.383360"><time>2026-06-14T09:01:12Z</time><extensions><accuracy>12</accuracy></extensions></trkpt>
    <trkpt lat="43.282388" lon="5.383570"><time>2026-06-14T09:01:15Z</time><extensions><accuracy>11</accuracy></extensions></trkpt>
    <trkpt lat="43.282260" lon="5.383666"><time>2026-06-14T09:01:18Z</time><extensions><accuracy>12</accuracy></extensions></trkpt>
    <trkpt lat="43.282126" lon="5.383779"><time>2026-06-14T09:01:21Z</time><extensions><accuracy>13</accuracy></extensions></trkpt>
    <trkpt lat="43.282024" lon="5.383997"><time>2026-06-14T09:01:24Z</time><extensions><accuracy>7</accuracy></extensions></trkpt>
    <trkpt lat="43.281909" lon="5.384057"><time>2026-06-14T09:01:27Z</time><extensions><accuracy>10</accuracy></extensions></trkpt>
    <trkpt lat="43.281793" lon="5.384261"><time>2026-06-14T09:01:30Z</time><extensions><accuracy>8</accuracy></extensions></trkpt>
    <trkpt lat="43.281681" lon="5.384350"><time>2026-06-14T09:01:33Z</time><extensions><accuracy>11</accuracy></extensions></trkpt>
    <trkpt lat="43.281608" lon="5.384529"><time>2026-06-14T09:01:36Z</time><extensions><accuracy>8</accuracy></extensions></trkpt>
    <trkpt lat="43.281474" lon="5.384688"><time>2026-06-14T09:01:39Z</time><extensions><accuracy>9</accuracy></extensions></trkpt>
    <trkpt lat="43.277137" lon="5.390438"><time>2026-06-14T09:03:42Z</time><extensions><accuracy>9</accuracy></extensions></trkpt>
    <trkpt lat="43.277034" lon="5.390627"><time>2026-06-14T09:03:45Z</time><extensions><accuracy>14</accuracy></extensions></trkpt>
    <trkpt lat="43.276881" lon="5.390759"><time>2026-06-14T09:03:48Z</time><extensions><accuracy>9</accuracy></extensions></trkpt>
    <trkpt lat="43.276844" lon="5.390950"><time>2026-06-14T09:03:51Z</time><extensions><accuracy>8</accuracy></extensions></trkpt>
    <trkpt lat="43.276721" lon="5.391047"><time>2026-06-14T09:03:54Z</time><extensions><accuracy>11</accuracy></extensions></trkpt>
    <trkpt lat="43.276591" lon="5.391177"><time>2026-06-14T09:03:57Z</time><extensions><accuracy>8</accuracy></extensions></trkpt>
    <trkpt lat="43.276474" lon="5.391350"><time>2026-06-14T09:04:00Z</time><extensions><accuracy>13</accuracy></extensions></trkpt>
    <trkpt lat="43.276383" lon="5.391475"><time>2026-06-14T09:04:03Z</time><extensions><accuracy>13</accuracy></extensions></trkpt>
    <trkpt lat="43.276251" lon="5.391682"><time>2026-06-14T09:04:06Z</time><extensions><accuracy>7</accuracy></extensions></trkpt>
    <trkpt lat="43.276154" lon="5.391725"><time>2026-06-14T09:04:09Z</time><extensions><accuracy>10</accuracy></extensions></trkpt>
    <trkpt lat="43.276044" lon="5.391926"><time>2026-06-14T09:04:12Z</time><extensions><accuracy>13</accuracy></extensions></trkpt>
    <trkpt lat="43.275966" lon="5.392036"><time>2026-06-14T09:04:15Z</time><extensions><accuracy>8</accuracy></extensions></trkpt>
    <trkpt lat="43.275824" lon="5.392196"><time>2026-06-14T09:04:18Z</time><extensions><accuracy>7</accuracy></extensions></trkpt>
    <trkpt lat="43.275714" lon="5.392319"><time>2026-06-14T09:04:21Z</time><extensions><accuracy>12</accuracy></extensions></trkpt>
    <trkpt lat="43.275604" lon="5.392491"><time>2026-06-14T09:04:24Z</time><extensions><accuracy>10</accuracy></extensions></trkpt>
    <trkpt lat="43.275548" lon="5.392684"><time>2026-06-14T09:04:27Z</time><extensions><accuracy>14</accuracy></extensions></trkpt>
    <trkpt lat="43.275439" lon="5.392726"><time>2026-06-14T09:04:30Z</time><extensions><accuracy>11</accuracy></extensions></trkpt>
    <trkpt lat="43.275352" lon="5.392909"><time>2026-06-14T09:04:33Z</time><extensions><accuracy>10</accuracy></extensions></trkpt>
    <trkpt lat="43.275210" lon="5.393048"><time>2026-06-14T09:04:36Z</time><extensions><accuracy>10</accuracy></extensions></trkpt>
    <trkpt lat="43.275139" lon="5.393199"><time>2026-06-14T09:04:39Z</time><extensions><accuracy>7</accuracy></extensions></trkpt>
    <trkpt lat="43.274988" lon="5.393307"><time>2026-06-14T09:04:42Z</time><extensions><accuracy>7</accuracy></extensions></trkpt>
    <trkpt lat="43.274910" lon="5.393397"><time>2026-06-14T09:04:45Z</time><extensions><accuracy>12</accuracy></extensions></trkpt>
    <trkpt lat="43.274796" lon="5.393563"><time>2026-06-14T09:04:48Z</time><extensions><accuracy>9</accuracy></extensions></trkpt>
    <trkpt lat="43.274677" lon="5.393753"><time>2026-06-14T09:04:51Z</time><extensions><accuracy>14</accuracy></extensions></trkpt>
    <trkpt lat="43.274600" lon="5.393904"><time>2026-06-14T09:04:54Z</time><extensions><accuracy>6</accuracy></extensions></trkpt>
    <trkpt lat="43.274490" lon="5.394036"><time>2026-06-14T09:04:57Z</time><extensions><accuracy>14</accuracy></extensions></trkpt>
    <trkpt lat="43.274338" lon="5.394138"><time>2026-06-14T09:05:00Z</time><extensions><accuracy>9</accuracy></extensions></trkpt>
    <trkpt lat="43.274258" lon="5.394300"><time>2026-06-14T09:05:03Z</time><extensions><accuracy>11</accuracy></extensions></trkpt>
    <trkpt lat="43.274150" lon="5.394437"><time>2026-06-14T09:05:06Z</time><extensions><accuracy>9</accuracy></extensions></trkpt>
    <trkpt lat="43.274091" lon="5.394616"><time>2026-06-14T09:05:09Z</time><extensions><accuracy>12</accuracy></extensions></trkpt>
    <trkpt lat="43.273932" lon="5.394730"><time>2026-06-14T09:05:12Z</time><extensions><accuracy>7</accuracy></extensions></trkpt>
    <trkpt lat="43.273791" lon="5.394938"><time>2026-06-14T09:05:15Z</time><extensions><accuracy>10</accuracy></extensions></trkpt>
    <trkpt lat="43.273700" lon="5.395005"><time>2026-06-14T09:05:18Z</time><extensions><accuracy>13</accuracy></extensions></trkpt>
    <trkpt lat="43.273633" lon="5.395128"><time>2026-06-14T09:05:21Z</time><extensions><accuracy>13</accuracy></extensions></trkpt>
    <trkpt lat="43.273509" lon="5.395298"><time>2026-06-14T09:05:24Z</time><extensions><accuracy>12</accuracy></extensions></trkpt>
    <trkpt lat="43.273391" lon="5.395469"><time>2026-06-14T09:05:27Z</time><extensions><accuracy>9</accuracy></extensions></trkpt>
    <trkpt lat="43.273310" lon="5.395604"><time>2026-06-14T09:05:30Z</time><extensions><accuracy>13</accuracy></extensions></trkpt>
    <trkpt lat="43.273176" lon="5.395772"><time>2026-06-14T09:05:33Z</time><extensions><accuracy>13</accuracy></extensions></trkpt>
    <trkpt lat="43.273107" lon="5.395907"><time>2026-06-14T09:05:36Z</time><extensions><accuracy>9</accuracy></extensions></trkpt>
    <trkpt lat="43.272981" lon="5.396032"><time>2026-06-14T09:05:39Z</time><extensions><accuracy>14</accuracy></extensions></trkpt>
    <trkpt lat="43.272903" lon="5.396165"><time>2026-06-14T09:05:42Z</time><extensions><accuracy>9</accuracy></extensions></trkpt>
    <trkpt lat="43.272756" lon="5.396302"><time>2026-06-14T09:05:45Z</time><extensions><accuracy>9</accuracy></extensions></trkpt>
    <trkpt lat="43.272696" lon="5.396410"><time>2026-06-14T09:05:48Z</time><extensions><accuracy>10</accuracy></extensions></trkpt>
    <trkpt lat="43.272543" lon="5.396584"><time>2026-06-14T09:05:51Z</time><extensions><accuracy>12</accuracy></extensions></trkpt>
    <trkpt lat="43.272423" lon="5.396719"><time>2026-06-14T09:05:54Z</time><extensions><accuracy>6</accuracy></extensions></trkpt>
    <trkpt lat="43.272367" lon="5.396925"><time>2026-06-14T09:05:57Z</time><extensions><accuracy>12</accuracy></extensions></trkpt>
    <trkpt lat="43.272257" lon="5.396997"><time>2026-06-14T09:06:00Z</time><extensions><accuracy>14</accuracy></extensions></trkpt>
    <trkpt lat="43.272142" lon="5.397144"><time>2026-06-14T09:06:03Z</time><extensions><accuracy>12</accuracy></extensions></trkpt>
    <trkpt lat="43.272040" lon="5.397308"><time>2026-06-14T09:06:06Z</time><extensions><accuracy>11</accuracy></extensions></trkpt>
    <trkpt lat="43.271909" lon="5.397488"><time>2026-06-14T09:06:09Z</time><extensions><accuracy>10</accuracy></extensions></trkpt>
    <trkpt lat="43.271797" lon="5.397601"><time>2026-06-14T09:06:12Z</time><extensions><accuracy>7</accuracy></extensions></trkpt>
    <trkpt lat="43.271742" lon="5.397721"><time>2026-06-14T09:06:15Z</time><extensions><accuracy>14</accuracy></extensions></trkpt>
    <trkpt lat="43.271605" lon="5.397842"><time>2026-06-14T09:06:18Z</time><extensions><accuracy>9</accuracy></extensions></trkpt>
    <trkpt lat="43.271481" lon="5.397952"><time>2026-06-14T09:06:21Z</time><extensions><accuracy>8</accuracy></extensions></trkpt>
    <trkpt lat="43.271381" lon="5.398121"><time>2026-06-14T09:06:24Z</time><extensions><accuracy>12</accuracy></extensions></trkpt>
    <trkpt lat="43.271290" lon="5.398331"><time>2026-06-14T09:06:27Z</time><extensions><accuracy>6</accuracy></extensions></trkpt>
    <trkpt lat="43.271159" lon="5.398487"><time>2026-06-14T09:06:30Z</time><extensions><accuracy>10</accuracy></extensions></trkpt>
    <trkpt lat="43.271052" lon="5.398548"><time>2026-06-14T09:06:33Z</time><extensions><accuracy>10</accuracy></extensions></trkpt>
    <trkpt lat="43.270931" lon="5.398720"><time>2026-06-14T09:06:36Z</time><extensions><accuracy>8</accuracy></extensions></trkpt>
    <trkpt lat="43.270848" lon="5.398875"><time>2026-06-14T09:06:39Z</time><extensions><accuracy>13</accuracy></extensions></trkpt>
    <trkpt lat="43.270736" lon="5.399007"><time>2026-06-14T09:06:42Z</time><extensions><accuracy>10</accuracy></extensions></trkpt>
    <trkpt lat="43.270634" lon="5.399130"><time>2026-06-14T09:06:45Z</time><extensions><accuracy>10</accuracy></extensions></trkpt>
    <trkpt lat="43.270499" lon="5.399306"><time>2026-06-14T09:06:48Z</time><extensions><accuracy>10</accuracy></extensions></trkpt>
    <trkpt lat="43.270410" lon="5.399389"><time>2026-06-14T09:06:51Z</time><extensions><accuracy>13</accuracy></extensions></trkpt>
    <trkpt lat="43.270321" lon="5.399584"><time>2026-06-14T09:06:54Z</time><extensions><accuracy>13</accuracy></extensions></trkpt>
    <trkpt lat="43.270215" lon="5.399763"><time>2026-06-14T09:06:57Z</time><extensions><accuracy>11</accuracy></extensions></trkpt>
    <trkpt lat="43.270086" lon="5.399835"><time>2026-06-14T09:07:00Z</time><extensions><accuracy>7</accuracy></extensions></trkpt>
    <trkpt lat="43.269978" lon="5.400003"><time>2026-06-14T09:07:03Z</time><extensions><accuracy>10</accuracy></extensions></trkpt>
  </trkseg></trk>
</gpx>
